state,county,primary_city,zip,address
PA,Beaver County,Aliquippa,15001,"810 Third St.
Beaver, PA 15009
(724) 770-4440

"
PA,Beaver County,Ambridge,15003,"810 Third St.
Beaver, PA 15009
(724) 770-4440

"
PA,Beaver County,Baden,15005,"810 Third St.
Beaver, PA 15009
(724) 770-4440

"
PA,Allegheny County,Bakerstown,15007,"542 Forbes Ave., Suite 604
Pittsburgh, PA 15219-2953
(412) 350-4500"
PA,Beaver County,Beaver,15009,"810 Third St.
Beaver, PA 15009
(724) 770-4440

"
PA,Beaver County,Beaver Falls,15010,"810 Third St.
Beaver, PA 15009
(724) 770-4440

"
PA,Westmoreland County,Belle Vernon,15012,"2 N. Main St.
Greensburg, PA 15601
(724) 830-3150"
PA,Allegheny County,Brackenridge,15014,"542 Forbes Ave., Suite 604
Pittsburgh, PA 15219-2953
(412) 350-4500"
PA,Allegheny County,Bradfordwoods,15015,"542 Forbes Ave., Suite 604
Pittsburgh, PA 15219-2953
(412) 350-4500"
PA,Allegheny County,Bridgeville,15017,"542 Forbes Ave., Suite 604
Pittsburgh, PA 15219-2953
(412) 350-4500"
PA,Allegheny County,Buena Vista,15018,"542 Forbes Ave., Suite 604
Pittsburgh, PA 15219-2953
(412) 350-4500"
PA,Washington County,Bulger,15019,"100 W. Beau St., Suite 206
Washington, PA 15301
(724) 228-6750"
PA,Washington County,Burgettstown,15021,"100 W. Beau St., Suite 206
Washington, PA 15301
(724) 228-6750"
PA,Washington County,Charleroi,15022,"100 W. Beau St., Suite 206
Washington, PA 15301
(724) 228-6750"
PA,Allegheny County,Cheswick,15024,"542 Forbes Ave., Suite 604
Pittsburgh, PA 15219-2953
(412) 350-4500"
PA,Allegheny County,Clairton,15025,"542 Forbes Ave., Suite 604
Pittsburgh, PA 15219-2953
(412) 350-4500"
PA,Beaver County,Clinton,15026,"810 Third St.
Beaver, PA 15009
(724) 770-4440

"
PA,Beaver County,Conway,15027,"810 Third St.
Beaver, PA 15009
(724) 770-4440

"
PA,Allegheny County,Creighton,15030,"542 Forbes Ave., Suite 604
Pittsburgh, PA 15219-2953
(412) 350-4500"
PA,Allegheny County,Cuddy,15031,"542 Forbes Ave., Suite 604
Pittsburgh, PA 15219-2953
(412) 350-4500"
PA,Washington County,Donora,15033,"100 W. Beau St., Suite 206
Washington, PA 15301
(724) 228-6750"
PA,Allegheny County,Dravosburg,15034,"542 Forbes Ave., Suite 604
Pittsburgh, PA 15219-2953
(412) 350-4500"
PA,Allegheny County,East Mc Keesport,15035,"542 Forbes Ave., Suite 604
Pittsburgh, PA 15219-2953
(412) 350-4500"
PA,Allegheny County,Elizabeth,15037,"542 Forbes Ave., Suite 604
Pittsburgh, PA 15219-2953
(412) 350-4500"
PA,Beaver County,Freedom,15042,"810 Third St.
Beaver, PA 15009
(724) 770-4440

"
PA,Beaver County,Georgetown,15043,"810 Third St.
Beaver, PA 15009
(724) 770-4440

"
PA,Allegheny County,Gibsonia,15044,"542 Forbes Ave., Suite 604
Pittsburgh, PA 15219-2953
(412) 350-4500"
PA,Allegheny County,Glassport,15045,"542 Forbes Ave., Suite 604
Pittsburgh, PA 15219-2953
(412) 350-4500"
PA,Allegheny County,Crescent,15046,"542 Forbes Ave., Suite 604
Pittsburgh, PA 15219-2953
(412) 350-4500"
PA,Allegheny County,Harwick,15049,"542 Forbes Ave., Suite 604
Pittsburgh, PA 15219-2953
(412) 350-4500"
PA,Beaver County,Hookstown,15050,"810 Third St.
Beaver, PA 15009
(724) 770-4440

"
PA,Allegheny County,Indianola,15051,"542 Forbes Ave., Suite 604
Pittsburgh, PA 15219-2953
(412) 350-4500"
PA,Beaver County,Industry,15052,"810 Third St.
Beaver, PA 15009
(724) 770-4440

"
PA,Washington County,Joffre,15053,"100 W. Beau St., Suite 206
Washington, PA 15301
(724) 228-6750"
PA,Washington County,Lawrence,15055,"100 W. Beau St., Suite 206
Washington, PA 15301
(724) 228-6750"
PA,Allegheny County,Leetsdale,15056,"542 Forbes Ave., Suite 604
Pittsburgh, PA 15219-2953
(412) 350-4500"
PA,Washington County,Mc Donald,15057,"100 W. Beau St., Suite 206
Washington, PA 15301
(724) 228-6750"
PA,Beaver County,Midland,15059,"810 Third St.
Beaver, PA 15009
(724) 770-4440

"
PA,Beaver County,Monaca,15061,"810 Third St.
Beaver, PA 15009
(724) 770-4440

"
PA,Westmoreland County,Monessen,15062,"2 N. Main St.
Greensburg, PA 15601
(724) 830-3150"
PA,Washington County,Monongahela,15063,"100 W. Beau St., Suite 206
Washington, PA 15301
(724) 228-6750"
PA,Allegheny County,Morgan,15064,"542 Forbes Ave., Suite 604
Pittsburgh, PA 15219-2953
(412) 350-4500"
PA,Allegheny County,Natrona Heights,15065,"542 Forbes Ave., Suite 604
Pittsburgh, PA 15219-2953
(412) 350-4500"
PA,Beaver County,New Brighton,15066,"810 Third St.
Beaver, PA 15009
(724) 770-4440

"
PA,Washington County,New Eagle,15067,"100 W. Beau St., Suite 206
Washington, PA 15301
(724) 228-6750"
PA,Westmoreland County,New Kensington,15068,"2 N. Main St.
Greensburg, PA 15601
(724) 830-3150"
PA,Allegheny County,Oakdale,15071,"542 Forbes Ave., Suite 604
Pittsburgh, PA 15219-2953
(412) 350-4500"
PA,Beaver County,Rochester,15074,"810 Third St.
Beaver, PA 15009
(724) 770-4440

"
PA,Allegheny County,Russellton,15076,"542 Forbes Ave., Suite 604
Pittsburgh, PA 15219-2953
(412) 350-4500"
PA,Washington County,Slovan,15078,"100 W. Beau St., Suite 206
Washington, PA 15301
(724) 228-6750"
PA,Westmoreland County,Sutersville,15083,"2 N. Main St.
Greensburg, PA 15601
(724) 830-3150"
PA,Allegheny County,Tarentum,15084,"542 Forbes Ave., Suite 604
Pittsburgh, PA 15219-2953
(412) 350-4500"
PA,Westmoreland County,Trafford,15085,"2 N. Main St.
Greensburg, PA 15601
(724) 830-3150"
PA,Allegheny County,Warrendale,15086,"542 Forbes Ave., Suite 604
Pittsburgh, PA 15219-2953
(412) 350-4500"
PA,Westmoreland County,West Newton,15089,"2 N. Main St.
Greensburg, PA 15601
(724) 830-3150"
PA,Allegheny County,Wexford,15090,"542 Forbes Ave., Suite 604
Pittsburgh, PA 15219-2953
(412) 350-4500"
PA,Allegheny County,Allison Park,15101,"542 Forbes Ave., Suite 604
Pittsburgh, PA 15219-2953
(412) 350-4500"
PA,Allegheny County,Bethel Park,15102,"542 Forbes Ave., Suite 604
Pittsburgh, PA 15219-2953
(412) 350-4500"
PA,Allegheny County,Braddock,15104,"542 Forbes Ave., Suite 604
Pittsburgh, PA 15219-2953
(412) 350-4500"
PA,Allegheny County,Carnegie,15106,"542 Forbes Ave., Suite 604
Pittsburgh, PA 15219-2953
(412) 350-4500"
PA,Allegheny County,Coraopolis,15108,"542 Forbes Ave., Suite 604
Pittsburgh, PA 15219-2953
(412) 350-4500"
PA,Allegheny County,Duquesne,15110,"542 Forbes Ave., Suite 604
Pittsburgh, PA 15219-2953
(412) 350-4500"
PA,Allegheny County,East Pittsburgh,15112,"542 Forbes Ave., Suite 604
Pittsburgh, PA 15219-2953
(412) 350-4500"
PA,Allegheny County,Glenshaw,15116,"542 Forbes Ave., Suite 604
Pittsburgh, PA 15219-2953
(412) 350-4500"
PA,Allegheny County,Homestead,15120,"542 Forbes Ave., Suite 604
Pittsburgh, PA 15219-2953
(412) 350-4500"
PA,Allegheny County,West Mifflin,15122,"542 Forbes Ave., Suite 604
Pittsburgh, PA 15219-2953
(412) 350-4500"
PA,Allegheny County,West Mifflin,15123,"542 Forbes Ave., Suite 604
Pittsburgh, PA 15219-2953
(412) 350-4500"
PA,Allegheny County,Imperial,15126,"542 Forbes Ave., Suite 604
Pittsburgh, PA 15219-2953
(412) 350-4500"
PA,Allegheny County,South Park,15129,"542 Forbes Ave., Suite 604
Pittsburgh, PA 15219-2953
(412) 350-4500"
PA,Allegheny County,Mckeesport,15131,"542 Forbes Ave., Suite 604
Pittsburgh, PA 15219-2953
(412) 350-4500"
PA,Allegheny County,Mckeesport,15132,"542 Forbes Ave., Suite 604
Pittsburgh, PA 15219-2953
(412) 350-4500"
PA,Allegheny County,Mckeesport,15133,"542 Forbes Ave., Suite 604
Pittsburgh, PA 15219-2953
(412) 350-4500"
PA,Allegheny County,Mckeesport,15135,"542 Forbes Ave., Suite 604
Pittsburgh, PA 15219-2953
(412) 350-4500"
PA,Allegheny County,Mc Kees Rocks,15136,"542 Forbes Ave., Suite 604
Pittsburgh, PA 15219-2953
(412) 350-4500"
PA,Allegheny County,North Versailles,15137,"542 Forbes Ave., Suite 604
Pittsburgh, PA 15219-2953
(412) 350-4500"
PA,Allegheny County,Oakmont,15139,"542 Forbes Ave., Suite 604
Pittsburgh, PA 15219-2953
(412) 350-4500"
PA,Allegheny County,Pitcairn,15140,"542 Forbes Ave., Suite 604
Pittsburgh, PA 15219-2953
(412) 350-4500"
PA,Allegheny County,Presto,15142,"542 Forbes Ave., Suite 604
Pittsburgh, PA 15219-2953
(412) 350-4500"
PA,Allegheny County,Sewickley,15143,"542 Forbes Ave., Suite 604
Pittsburgh, PA 15219-2953
(412) 350-4500"
PA,Allegheny County,Springdale,15144,"542 Forbes Ave., Suite 604
Pittsburgh, PA 15219-2953
(412) 350-4500"
PA,Allegheny County,Turtle Creek,15145,"542 Forbes Ave., Suite 604
Pittsburgh, PA 15219-2953
(412) 350-4500"
PA,Allegheny County,Monroeville,15146,"542 Forbes Ave., Suite 604
Pittsburgh, PA 15219-2953
(412) 350-4500"
PA,Allegheny County,Verona,15147,"542 Forbes Ave., Suite 604
Pittsburgh, PA 15219-2953
(412) 350-4500"
PA,Allegheny County,Wilmerding,15148,"542 Forbes Ave., Suite 604
Pittsburgh, PA 15219-2953
(412) 350-4500"
PA,Allegheny County,Pittsburgh,15201,"542 Forbes Ave., Suite 604
Pittsburgh, PA 15219-2953
(412) 350-4500"
PA,Allegheny County,Pittsburgh,15202,"542 Forbes Ave., Suite 604
Pittsburgh, PA 15219-2953
(412) 350-4500"
PA,Allegheny County,Pittsburgh,15203,"542 Forbes Ave., Suite 604
Pittsburgh, PA 15219-2953
(412) 350-4500"
PA,Allegheny County,Pittsburgh,15204,"542 Forbes Ave., Suite 604
Pittsburgh, PA 15219-2953
(412) 350-4500"
PA,Allegheny County,Pittsburgh,15205,"542 Forbes Ave., Suite 604
Pittsburgh, PA 15219-2953
(412) 350-4500"
PA,Allegheny County,Pittsburgh,15206,"542 Forbes Ave., Suite 604
Pittsburgh, PA 15219-2953
(412) 350-4500"
PA,Allegheny County,Pittsburgh,15207,"542 Forbes Ave., Suite 604
Pittsburgh, PA 15219-2953
(412) 350-4500"
PA,Allegheny County,Pittsburgh,15208,"542 Forbes Ave., Suite 604
Pittsburgh, PA 15219-2953
(412) 350-4500"
PA,Allegheny County,Pittsburgh,15209,"542 Forbes Ave., Suite 604
Pittsburgh, PA 15219-2953
(412) 350-4500"
PA,Allegheny County,Pittsburgh,15210,"542 Forbes Ave., Suite 604
Pittsburgh, PA 15219-2953
(412) 350-4500"
PA,Allegheny County,Pittsburgh,15211,"542 Forbes Ave., Suite 604
Pittsburgh, PA 15219-2953
(412) 350-4500"
PA,Allegheny County,Pittsburgh,15212,"542 Forbes Ave., Suite 604
Pittsburgh, PA 15219-2953
(412) 350-4500"
PA,Allegheny County,Pittsburgh,15213,"542 Forbes Ave., Suite 604
Pittsburgh, PA 15219-2953
(412) 350-4500"
PA,Allegheny County,Pittsburgh,15214,"542 Forbes Ave., Suite 604
Pittsburgh, PA 15219-2953
(412) 350-4500"
PA,Allegheny County,Pittsburgh,15215,"542 Forbes Ave., Suite 604
Pittsburgh, PA 15219-2953
(412) 350-4500"
PA,Allegheny County,Pittsburgh,15216,"542 Forbes Ave., Suite 604
Pittsburgh, PA 15219-2953
(412) 350-4500"
PA,Allegheny County,Pittsburgh,15217,"542 Forbes Ave., Suite 604
Pittsburgh, PA 15219-2953
(412) 350-4500"
PA,Allegheny County,Pittsburgh,15218,"542 Forbes Ave., Suite 604
Pittsburgh, PA 15219-2953
(412) 350-4500"
PA,Allegheny County,Pittsburgh,15219,"542 Forbes Ave., Suite 604
Pittsburgh, PA 15219-2953
(412) 350-4500"
PA,Allegheny County,Pittsburgh,15220,"542 Forbes Ave., Suite 604
Pittsburgh, PA 15219-2953
(412) 350-4500"
PA,Allegheny County,Pittsburgh,15221,"542 Forbes Ave., Suite 604
Pittsburgh, PA 15219-2953
(412) 350-4500"
PA,Allegheny County,Pittsburgh,15222,"542 Forbes Ave., Suite 604
Pittsburgh, PA 15219-2953
(412) 350-4500"
PA,Allegheny County,Pittsburgh,15223,"542 Forbes Ave., Suite 604
Pittsburgh, PA 15219-2953
(412) 350-4500"
PA,Allegheny County,Pittsburgh,15224,"542 Forbes Ave., Suite 604
Pittsburgh, PA 15219-2953
(412) 350-4500"
PA,Allegheny County,Pittsburgh,15225,"542 Forbes Ave., Suite 604
Pittsburgh, PA 15219-2953
(412) 350-4500"
PA,Allegheny County,Pittsburgh,15226,"542 Forbes Ave., Suite 604
Pittsburgh, PA 15219-2953
(412) 350-4500"
PA,Allegheny County,Pittsburgh,15227,"542 Forbes Ave., Suite 604
Pittsburgh, PA 15219-2953
(412) 350-4500"
PA,Allegheny County,Pittsburgh,15228,"542 Forbes Ave., Suite 604
Pittsburgh, PA 15219-2953
(412) 350-4500"
PA,Allegheny County,Pittsburgh,15229,"542 Forbes Ave., Suite 604
Pittsburgh, PA 15219-2953
(412) 350-4500"
PA,Allegheny County,Pittsburgh,15232,"542 Forbes Ave., Suite 604
Pittsburgh, PA 15219-2953
(412) 350-4500"
PA,Allegheny County,Pittsburgh,15233,"542 Forbes Ave., Suite 604
Pittsburgh, PA 15219-2953
(412) 350-4500"
PA,Allegheny County,Pittsburgh,15234,"542 Forbes Ave., Suite 604
Pittsburgh, PA 15219-2953
(412) 350-4500"
PA,Allegheny County,Pittsburgh,15235,"542 Forbes Ave., Suite 604
Pittsburgh, PA 15219-2953
(412) 350-4500"
PA,Allegheny County,Pittsburgh,15236,"542 Forbes Ave., Suite 604
Pittsburgh, PA 15219-2953
(412) 350-4500"
PA,Allegheny County,Pittsburgh,15237,"542 Forbes Ave., Suite 604
Pittsburgh, PA 15219-2953
(412) 350-4500"
PA,Allegheny County,Pittsburgh,15238,"542 Forbes Ave., Suite 604
Pittsburgh, PA 15219-2953
(412) 350-4500"
PA,Allegheny County,Pittsburgh,15239,"542 Forbes Ave., Suite 604
Pittsburgh, PA 15219-2953
(412) 350-4500"
PA,Allegheny County,Pittsburgh,15241,"542 Forbes Ave., Suite 604
Pittsburgh, PA 15219-2953
(412) 350-4500"
PA,Allegheny County,Pittsburgh,15243,"542 Forbes Ave., Suite 604
Pittsburgh, PA 15219-2953
(412) 350-4500"
PA,Allegheny County,Pittsburgh,15253,"542 Forbes Ave., Suite 604
Pittsburgh, PA 15219-2953
(412) 350-4500"
PA,Allegheny County,Pittsburgh,15260,"542 Forbes Ave., Suite 604
Pittsburgh, PA 15219-2953
(412) 350-4500"
PA,Allegheny County,Pittsburgh,15272,"542 Forbes Ave., Suite 604
Pittsburgh, PA 15219-2953
(412) 350-4500"
PA,Allegheny County,Pittsburgh,15273,"542 Forbes Ave., Suite 604
Pittsburgh, PA 15219-2953
(412) 350-4500"
PA,Allegheny County,Pittsburgh,15275,"542 Forbes Ave., Suite 604
Pittsburgh, PA 15219-2953
(412) 350-4500"
PA,Allegheny County,Pittsburgh,15276,"542 Forbes Ave., Suite 604
Pittsburgh, PA 15219-2953
(412) 350-4500"
PA,Allegheny County,Pittsburgh,15288,"542 Forbes Ave., Suite 604
Pittsburgh, PA 15219-2953
(412) 350-4500"
PA,Allegheny County,Pittsburgh,15290,"542 Forbes Ave., Suite 604
Pittsburgh, PA 15219-2953
(412) 350-4500"
PA,Allegheny County,Pittsburgh,15295,"542 Forbes Ave., Suite 604
Pittsburgh, PA 15219-2953
(412) 350-4500"
PA,Washington County,Washington,15301,"100 W. Beau St., Suite 206
Washington, PA 15301
(724) 228-6750"
PA,Greene County,Aleppo,15310,"93 E. High St.
Waynesburg, PA 15370
(724) 852-5304

"
PA,Washington County,Amity,15311,"100 W. Beau St., Suite 206
Washington, PA 15301
(724) 228-6750"
PA,Washington County,Avella,15312,"100 W. Beau St., Suite 206
Washington, PA 15301
(724) 228-6750"
PA,Washington County,Bentleyville,15314,"100 W. Beau St., Suite 206
Washington, PA 15301
(724) 228-6750"
PA,Greene County,Brave,15316,"93 E. High St.
Waynesburg, PA 15370
(724) 852-5304

"
PA,Washington County,Canonsburg,15317,"100 W. Beau St., Suite 206
Washington, PA 15301
(724) 228-6750"
PA,Greene County,Carmichaels,15320,"93 E. High St.
Waynesburg, PA 15370
(724) 852-5304

"
PA,Washington County,Cecil,15321,"100 W. Beau St., Suite 206
Washington, PA 15301
(724) 228-6750"
PA,Greene County,Clarksville,15322,"93 E. High St.
Waynesburg, PA 15370
(724) 852-5304

"
PA,Washington County,Claysville,15323,"100 W. Beau St., Suite 206
Washington, PA 15301
(724) 228-6750"
PA,Greene County,Dilliner,15327,"93 E. High St.
Waynesburg, PA 15370
(724) 852-5304

"
PA,Washington County,Prosperity,15329,"100 W. Beau St., Suite 206
Washington, PA 15301
(724) 228-6750"
PA,Washington County,Eighty Four,15330,"100 W. Beau St., Suite 206
Washington, PA 15301
(724) 228-6750"
PA,Washington County,Finleyville,15332,"100 W. Beau St., Suite 206
Washington, PA 15301
(724) 228-6750"
PA,Washington County,Fredericktown,15333,"100 W. Beau St., Suite 206
Washington, PA 15301
(724) 228-6750"
PA,Greene County,Garards Fort,15334,"93 E. High St.
Waynesburg, PA 15370
(724) 852-5304

"
PA,Greene County,Graysville,15337,"93 E. High St.
Waynesburg, PA 15370
(724) 852-5304

"
PA,Greene County,Greensboro,15338,"93 E. High St.
Waynesburg, PA 15370
(724) 852-5304

"
PA,Washington County,Hickory,15340,"100 W. Beau St., Suite 206
Washington, PA 15301
(724) 228-6750"
PA,Greene County,Holbrook,15341,"93 E. High St.
Waynesburg, PA 15370
(724) 852-5304

"
PA,Washington County,Houston,15342,"100 W. Beau St., Suite 206
Washington, PA 15301
(724) 228-6750"
PA,Greene County,Jefferson,15344,"93 E. High St.
Waynesburg, PA 15370
(724) 852-5304

"
PA,Washington County,Marianna,15345,"100 W. Beau St., Suite 206
Washington, PA 15301
(724) 228-6750"
PA,Greene County,Mount Morris,15349,"93 E. High St.
Waynesburg, PA 15370
(724) 852-5304

"
PA,Greene County,New Freeport,15352,"93 E. High St.
Waynesburg, PA 15370
(724) 852-5304

"
PA,Greene County,Rices Landing,15357,"93 E. High St.
Waynesburg, PA 15370
(724) 852-5304

"
PA,Greene County,Rogersville,15359,"93 E. High St.
Waynesburg, PA 15370
(724) 852-5304

"
PA,Washington County,Scenery Hill,15360,"100 W. Beau St., Suite 206
Washington, PA 15301
(724) 228-6750"
PA,Greene County,Spraggs,15362,"93 E. High St.
Waynesburg, PA 15370
(724) 852-5304

"
PA,Washington County,Strabane,15363,"100 W. Beau St., Suite 206
Washington, PA 15301
(724) 228-6750"
PA,Greene County,Sycamore,15364,"93 E. High St.
Waynesburg, PA 15370
(724) 852-5304

"
PA,Washington County,Venetia,15367,"100 W. Beau St., Suite 206
Washington, PA 15301
(724) 228-6750"
PA,Greene County,Waynesburg,15370,"93 E. High St.
Waynesburg, PA 15370
(724) 852-5304

"
PA,Washington County,West Alexander,15376,"100 W. Beau St., Suite 206
Washington, PA 15301
(724) 228-6750"
PA,Washington County,West Finley,15377,"100 W. Beau St., Suite 206
Washington, PA 15301
(724) 228-6750"
PA,Greene County,Wind Ridge,15380,"93 E. High St.
Waynesburg, PA 15370
(724) 852-5304

"
PA,Fayette County,Uniontown,15401,"22 E. Main St.
Uniontown, PA 15401-3412
(724) 430-1289"
PA,Fayette County,Adah,15410,"22 E. Main St.
Uniontown, PA 15401-3412
(724) 430-1289"
PA,Somerset County,Addison,15411,"300 N. Center Ave., Ste. 340
Somerset, PA 15501
(814) 445-1549

"
PA,Fayette County,Allison,15413,"22 E. Main St.
Uniontown, PA 15401-3412
(724) 430-1289"
PA,Fayette County,Brownsville,15417,"22 E. Main St.
Uniontown, PA 15401-3412
(724) 430-1289"
PA,Washington County,California,15419,"100 W. Beau St., Suite 206
Washington, PA 15301
(724) 228-6750"
PA,Washington County,Coal Center,15423,"100 W. Beau St., Suite 206
Washington, PA 15301
(724) 228-6750"
PA,Somerset County,Confluence,15424,"300 N. Center Ave., Ste. 340
Somerset, PA 15501
(814) 445-1549

"
PA,Fayette County,Connellsville,15425,"22 E. Main St.
Uniontown, PA 15401-3412
(724) 430-1289"
PA,Washington County,Daisytown,15427,"100 W. Beau St., Suite 206
Washington, PA 15301
(724) 228-6750"
PA,Fayette County,Dawson,15428,"22 E. Main St.
Uniontown, PA 15401-3412
(724) 430-1289"
PA,Fayette County,Dunbar,15431,"22 E. Main St.
Uniontown, PA 15401-3412
(724) 430-1289"
PA,Fayette County,East Millsboro,15433,"22 E. Main St.
Uniontown, PA 15401-3412
(724) 430-1289"
PA,Fayette County,Fairchance,15436,"22 E. Main St.
Uniontown, PA 15401-3412
(724) 430-1289"
PA,Fayette County,Farmington,15437,"22 E. Main St.
Uniontown, PA 15401-3412
(724) 430-1289"
PA,Fayette County,Fayette City,15438,"22 E. Main St.
Uniontown, PA 15401-3412
(724) 430-1289"
PA,Fayette County,Gibbon Glade,15440,"22 E. Main St.
Uniontown, PA 15401-3412
(724) 430-1289"
PA,Fayette County,Grindstone,15442,"22 E. Main St.
Uniontown, PA 15401-3412
(724) 430-1289"
PA,Fayette County,Hiller,15444,"22 E. Main St.
Uniontown, PA 15401-3412
(724) 430-1289"
PA,Fayette County,Hopwood,15445,"22 E. Main St.
Uniontown, PA 15401-3412
(724) 430-1289"
PA,Fayette County,Indian Head,15446,"22 E. Main St.
Uniontown, PA 15401-3412
(724) 430-1289"
PA,Fayette County,La Belle,15450,"22 E. Main St.
Uniontown, PA 15401-3412
(724) 430-1289"
PA,Fayette County,Lake Lynn,15451,"22 E. Main St.
Uniontown, PA 15401-3412
(724) 430-1289"
PA,Fayette County,Lemont Furnace,15456,"22 E. Main St.
Uniontown, PA 15401-3412
(724) 430-1289"
PA,Fayette County,Mc Clellandtown,15458,"22 E. Main St.
Uniontown, PA 15401-3412
(724) 430-1289"
PA,Fayette County,Markleysburg,15459,"22 E. Main St.
Uniontown, PA 15401-3412
(724) 430-1289"
PA,Fayette County,Masontown,15461,"22 E. Main St.
Uniontown, PA 15401-3412
(724) 430-1289"
PA,Fayette County,Melcroft,15462,"22 E. Main St.
Uniontown, PA 15401-3412
(724) 430-1289"
PA,Fayette County,Mill Run,15464,"22 E. Main St.
Uniontown, PA 15401-3412
(724) 430-1289"
PA,Fayette County,New Salem,15468,"22 E. Main St.
Uniontown, PA 15401-3412
(724) 430-1289"
PA,Fayette County,Normalville,15469,"22 E. Main St.
Uniontown, PA 15401-3412
(724) 430-1289"
PA,Fayette County,Ohiopyle,15470,"22 E. Main St.
Uniontown, PA 15401-3412
(724) 430-1289"
PA,Fayette County,Perryopolis,15473,"22 E. Main St.
Uniontown, PA 15401-3412
(724) 430-1289"
PA,Fayette County,Point Marion,15474,"22 E. Main St.
Uniontown, PA 15401-3412
(724) 430-1289"
PA,Fayette County,Smithfield,15478,"22 E. Main St.
Uniontown, PA 15401-3412
(724) 430-1289"
PA,Westmoreland County,Smithton,15479,"2 N. Main St.
Greensburg, PA 15601
(724) 830-3150"
PA,Fayette County,Smock,15480,"22 E. Main St.
Uniontown, PA 15401-3412
(724) 430-1289"
PA,Fayette County,Vanderbilt,15486,"22 E. Main St.
Uniontown, PA 15401-3412
(724) 430-1289"
PA,Fayette County,Waltersburg,15488,"22 E. Main St.
Uniontown, PA 15401-3412
(724) 430-1289"
PA,Fayette County,White,15490,"22 E. Main St.
Uniontown, PA 15401-3412
(724) 430-1289"
PA,Somerset County,Somerset,15501,"300 N. Center Ave., Ste. 340
Somerset, PA 15501
(814) 445-1549

"
PA,Bedford County,Alum Bank,15521,"200 S. Juliana Street
Bedford, PA 15522
(814) 623-4807"
PA,Bedford County,Bedford,15522,"200 S. Juliana Street
Bedford, PA 15522
(814) 623-4807"
PA,Somerset County,Berlin,15530,"300 N. Center Ave., Ste. 340
Somerset, PA 15501
(814) 445-1549

"
PA,Somerset County,Boswell,15531,"300 N. Center Ave., Ste. 340
Somerset, PA 15501
(814) 445-1549

"
PA,Bedford County,Breezewood,15533,"200 S. Juliana Street
Bedford, PA 15522
(814) 623-4807"
PA,Bedford County,Buffalo Mills,15534,"200 S. Juliana Street
Bedford, PA 15522
(814) 623-4807"
PA,Bedford County,Clearville,15535,"200 S. Juliana Street
Bedford, PA 15522
(814) 623-4807"
PA,Fulton County,Crystal Spring,15536,"116 W. Market St., Ste 205
McConnellsburg, PA 17233
(717) 485-6864"
PA,Bedford County,Everett,15537,"200 S. Juliana Street
Bedford, PA 15522
(814) 623-4807"
PA,Somerset County,Fairhope,15538,"300 N. Center Ave., Ste. 340
Somerset, PA 15501
(814) 445-1549

"
PA,Bedford County,Fishertown,15539,"200 S. Juliana Street
Bedford, PA 15522
(814) 623-4807"
PA,Somerset County,Fort Hill,15540,"300 N. Center Ave., Ste. 340
Somerset, PA 15501
(814) 445-1549

"
PA,Somerset County,Friedens,15541,"300 N. Center Ave., Ste. 340
Somerset, PA 15501
(814) 445-1549

"
PA,Somerset County,Garrett,15542,"300 N. Center Ave., Ste. 340
Somerset, PA 15501
(814) 445-1549

"
PA,Bedford County,Hyndman,15545,"200 S. Juliana Street
Bedford, PA 15522
(814) 623-4807"
PA,Somerset County,Jenners,15546,"300 N. Center Ave., Ste. 340
Somerset, PA 15501
(814) 445-1549

"
PA,Somerset County,Kantner,15548,"300 N. Center Ave., Ste. 340
Somerset, PA 15501
(814) 445-1549

"
PA,Bedford County,Manns Choice,15550,"200 S. Juliana Street
Bedford, PA 15522
(814) 623-4807"
PA,Somerset County,Markleton,15551,"300 N. Center Ave., Ste. 340
Somerset, PA 15501
(814) 445-1549

"
PA,Somerset County,Meyersdale,15552,"300 N. Center Ave., Ste. 340
Somerset, PA 15501
(814) 445-1549

"
PA,Bedford County,New Paris,15554,"200 S. Juliana Street
Bedford, PA 15522
(814) 623-4807"
PA,Somerset County,Rockwood,15557,"300 N. Center Ave., Ste. 340
Somerset, PA 15501
(814) 445-1549

"
PA,Somerset County,Salisbury,15558,"300 N. Center Ave., Ste. 340
Somerset, PA 15501
(814) 445-1549

"
PA,Bedford County,Schellsburg,15559,"200 S. Juliana Street
Bedford, PA 15522
(814) 623-4807"
PA,Somerset County,Springs,15562,"300 N. Center Ave., Ste. 340
Somerset, PA 15501
(814) 445-1549

"
PA,Somerset County,Stoystown,15563,"300 N. Center Ave., Ste. 340
Somerset, PA 15501
(814) 445-1549

"
PA,Somerset County,Wellersburg,15564,"300 N. Center Ave., Ste. 340
Somerset, PA 15501
(814) 445-1549

"
PA,Somerset County,West Salisbury,15565,"300 N. Center Ave., Ste. 340
Somerset, PA 15501
(814) 445-1549

"
PA,Westmoreland County,Greensburg,15601,"2 N. Main St.
Greensburg, PA 15601
(724) 830-3150"
PA,Westmoreland County,Acme,15610,"2 N. Main St.
Greensburg, PA 15601
(724) 830-3150"
PA,Westmoreland County,Adamsburg,15611,"2 N. Main St.
Greensburg, PA 15601
(724) 830-3150"
PA,Westmoreland County,Alverton,15612,"2 N. Main St.
Greensburg, PA 15601
(724) 830-3150"
PA,Westmoreland County,Apollo,15613,"2 N. Main St.
Greensburg, PA 15601
(724) 830-3150"
PA,Westmoreland County,Ardara,15615,"2 N. Main St.
Greensburg, PA 15601
(724) 830-3150"
PA,Westmoreland County,Avonmore,15618,"2 N. Main St.
Greensburg, PA 15601
(724) 830-3150"
PA,Westmoreland County,Bradenville,15620,"2 N. Main St.
Greensburg, PA 15601
(724) 830-3150"
PA,Fayette County,Champion,15622,"22 E. Main St.
Uniontown, PA 15401-3412
(724) 430-1289"
PA,Westmoreland County,Claridge,15623,"2 N. Main St.
Greensburg, PA 15601
(724) 830-3150"
PA,Westmoreland County,Delmont,15626,"2 N. Main St.
Greensburg, PA 15601
(724) 830-3150"
PA,Westmoreland County,Derry,15627,"2 N. Main St.
Greensburg, PA 15601
(724) 830-3150"
PA,Westmoreland County,Donegal,15628,"2 N. Main St.
Greensburg, PA 15601
(724) 830-3150"
PA,Westmoreland County,Export,15632,"2 N. Main St.
Greensburg, PA 15601
(724) 830-3150"
PA,Westmoreland County,Grapeville,15634,"2 N. Main St.
Greensburg, PA 15601
(724) 830-3150"
PA,Westmoreland County,Harrison City,15636,"2 N. Main St.
Greensburg, PA 15601
(724) 830-3150"
PA,Westmoreland County,Herminie,15637,"2 N. Main St.
Greensburg, PA 15601
(724) 830-3150"
PA,Westmoreland County,Hunker,15639,"2 N. Main St.
Greensburg, PA 15601
(724) 830-3150"
PA,Westmoreland County,Hyde Park,15641,"2 N. Main St.
Greensburg, PA 15601
(724) 830-3150"
PA,Westmoreland County,Irwin,15642,"2 N. Main St.
Greensburg, PA 15601
(724) 830-3150"
PA,Westmoreland County,Jeannette,15644,"2 N. Main St.
Greensburg, PA 15601
(724) 830-3150"
PA,Westmoreland County,Jones Mills,15646,"2 N. Main St.
Greensburg, PA 15601
(724) 830-3150"
PA,Westmoreland County,Larimer,15647,"2 N. Main St.
Greensburg, PA 15601
(724) 830-3150"
PA,Westmoreland County,Latrobe,15650,"2 N. Main St.
Greensburg, PA 15601
(724) 830-3150"
PA,Westmoreland County,Laughlintown,15655,"2 N. Main St.
Greensburg, PA 15601
(724) 830-3150"
PA,Westmoreland County,Leechburg,15656,"2 N. Main St.
Greensburg, PA 15601
(724) 830-3150"
PA,Westmoreland County,Ligonier,15658,"2 N. Main St.
Greensburg, PA 15601
(724) 830-3150"
PA,Westmoreland County,Loyalhanna,15661,"2 N. Main St.
Greensburg, PA 15601
(724) 830-3150"
PA,Westmoreland County,Manor,15665,"2 N. Main St.
Greensburg, PA 15601
(724) 830-3150"
PA,Westmoreland County,Mount Pleasant,15666,"2 N. Main St.
Greensburg, PA 15601
(724) 830-3150"
PA,Westmoreland County,Murrysville,15668,"2 N. Main St.
Greensburg, PA 15601
(724) 830-3150"
PA,Westmoreland County,New Alexandria,15670,"2 N. Main St.
Greensburg, PA 15601
(724) 830-3150"
PA,Westmoreland County,New Derry,15671,"2 N. Main St.
Greensburg, PA 15601
(724) 830-3150"
PA,Westmoreland County,New Stanton,15672,"2 N. Main St.
Greensburg, PA 15601
(724) 830-3150"
PA,Westmoreland County,Penn,15675,"2 N. Main St.
Greensburg, PA 15601
(724) 830-3150"
PA,Westmoreland County,Rector,15677,"2 N. Main St.
Greensburg, PA 15601
(724) 830-3150"
PA,Westmoreland County,Rillton,15678,"2 N. Main St.
Greensburg, PA 15601
(724) 830-3150"
PA,Westmoreland County,Ruffs Dale,15679,"2 N. Main St.
Greensburg, PA 15601
(724) 830-3150"
PA,Indiana County,Saltsburg,15681,"825 Philadelphia St.
Indiana, PA 15701-3934
(724) 465-3805"
PA,Westmoreland County,Scottdale,15683,"2 N. Main St.
Greensburg, PA 15601
(724) 830-3150"
PA,Westmoreland County,Slickville,15684,"2 N. Main St.
Greensburg, PA 15601
(724) 830-3150"
PA,Armstrong County,Spring Church,15686,"450 East Market St.
Kittanning, PA 16201
(724) 548-3222"
PA,Westmoreland County,Stahlstown,15687,"2 N. Main St.
Greensburg, PA 15601
(724) 830-3150"
PA,Westmoreland County,Tarrs,15688,"2 N. Main St.
Greensburg, PA 15601
(724) 830-3150"
PA,Westmoreland County,Vandergrift,15690,"2 N. Main St.
Greensburg, PA 15601
(724) 830-3150"
PA,Westmoreland County,Westmoreland City,15692,"2 N. Main St.
Greensburg, PA 15601
(724) 830-3150"
PA,Westmoreland County,Youngwood,15697,"2 N. Main St.
Greensburg, PA 15601
(724) 830-3150"
PA,Westmoreland County,Yukon,15698,"2 N. Main St.
Greensburg, PA 15601
(724) 830-3150"
PA,Indiana County,Indiana,15701,"825 Philadelphia St.
Indiana, PA 15701-3934
(724) 465-3805"
PA,Jefferson County,Anita,15711,"155 Main St.
Brookville, PA 15825
(814) 849-1603"
PA,Indiana County,Aultman,15713,"825 Philadelphia St.
Indiana, PA 15701-3934
(724) 465-3805"
PA,Cambria County,Northern Cambria,15714,"200 S. Center St.
Ebensburg, PA 15931
(814) 472-1464"
PA,Indiana County,Blairsville,15717,"825 Philadelphia St.
Indiana, PA 15701-3934
(724) 465-3805"
PA,Cambria County,Carrolltown,15722,"200 S. Center St.
Ebensburg, PA 15931
(814) 472-1464"
PA,Indiana County,Cherry Tree,15724,"825 Philadelphia St.
Indiana, PA 15701-3934
(724) 465-3805"
PA,Indiana County,Clarksburg,15725,"825 Philadelphia St.
Indiana, PA 15701-3934
(724) 465-3805"
PA,Indiana County,Clymer,15728,"825 Philadelphia St.
Indiana, PA 15701-3934
(724) 465-3805"
PA,Indiana County,Commodore,15729,"825 Philadelphia St.
Indiana, PA 15701-3934
(724) 465-3805"
PA,Jefferson County,Coolspring,15730,"155 Main St.
Brookville, PA 15825
(814) 849-1603"
PA,Indiana County,Creekside,15732,"825 Philadelphia St.
Indiana, PA 15701-3934
(724) 465-3805"
PA,Jefferson County,Frostburg,15740,"155 Main St.
Brookville, PA 15825
(814) 849-1603"
PA,Indiana County,Glen Campbell,15742,"825 Philadelphia St.
Indiana, PA 15701-3934
(724) 465-3805"
PA,Jefferson County,Hamilton,15744,"155 Main St.
Brookville, PA 15825
(814) 849-1603"
PA,Indiana County,Home,15747,"825 Philadelphia St.
Indiana, PA 15701-3934
(724) 465-3805"
PA,Indiana County,Homer City,15748,"825 Philadelphia St.
Indiana, PA 15701-3934
(724) 465-3805"
PA,Indiana County,Josephine,15750,"825 Philadelphia St.
Indiana, PA 15701-3934
(724) 465-3805"
PA,Clearfield County,La Jose,15753,"212 E Locust St.
Clearfield, PA 16830
(814) 765-2642"
PA,Clearfield County,Mahaffey,15757,"212 E Locust St.
Clearfield, PA 16830
(814) 765-2642"
PA,Indiana County,Marchand,15758,"825 Philadelphia St.
Indiana, PA 15701-3934
(724) 465-3805"
PA,Indiana County,Marion Center,15759,"825 Philadelphia St.
Indiana, PA 15701-3934
(724) 465-3805"
PA,Cambria County,Marsteller,15760,"200 S. Center St.
Ebensburg, PA 15931
(814) 472-1464"
PA,Indiana County,Mentcle,15761,"825 Philadelphia St.
Indiana, PA 15701-3934
(724) 465-3805"
PA,Cambria County,Nicktown,15762,"200 S. Center St.
Ebensburg, PA 15931
(814) 472-1464"
PA,Indiana County,Northpoint,15763,"825 Philadelphia St.
Indiana, PA 15701-3934
(724) 465-3805"
PA,Jefferson County,Oliveburg,15764,"155 Main St.
Brookville, PA 15825
(814) 849-1603"
PA,Indiana County,Penn Run,15765,"825 Philadelphia St.
Indiana, PA 15701-3934
(724) 465-3805"
PA,Jefferson County,Punxsutawney,15767,"155 Main St.
Brookville, PA 15825
(814) 849-1603"
PA,Jefferson County,Ringgold,15770,"155 Main St.
Brookville, PA 15825
(814) 849-1603"
PA,Indiana County,Rochester Mills,15771,"825 Philadelphia St.
Indiana, PA 15701-3934
(724) 465-3805"
PA,Indiana County,Rossiter,15772,"825 Philadelphia St.
Indiana, PA 15701-3934
(724) 465-3805"
PA,Cambria County,Saint Benedict,15773,"200 S. Center St.
Ebensburg, PA 15931
(814) 472-1464"
PA,Indiana County,Shelocta,15774,"825 Philadelphia St.
Indiana, PA 15701-3934
(724) 465-3805"
PA,Cambria County,Spangler,15775,"200 S. Center St.
Ebensburg, PA 15931
(814) 472-1464"
PA,Jefferson County,Sprankle Mills,15776,"155 Main St.
Brookville, PA 15825
(814) 849-1603"
PA,Indiana County,Starford,15777,"825 Philadelphia St.
Indiana, PA 15701-3934
(724) 465-3805"
PA,Jefferson County,Timblin,15778,"155 Main St.
Brookville, PA 15825
(814) 849-1603"
PA,Jefferson County,Valier,15780,"155 Main St.
Brookville, PA 15825
(814) 849-1603"
PA,Jefferson County,Worthville,15784,"155 Main St.
Brookville, PA 15825
(814) 849-1603"
PA,Clearfield County,Du Bois,15801,"212 E Locust St.
Clearfield, PA 16830
(814) 765-2642"
PA,Elk County,Benezett,15821,"300 Center St., P.O. Box 448
Ridgway, PA 15853-0448
(814) 776-5337"
PA,Elk County,Brandy Camp,15822,"300 Center St., P.O. Box 448
Ridgway, PA 15853-0448
(814) 776-5337"
PA,Elk County,Brockport,15823,"300 Center St., P.O. Box 448
Ridgway, PA 15853-0448
(814) 776-5337"
PA,Jefferson County,Brockway,15824,"155 Main St.
Brookville, PA 15825
(814) 849-1603"
PA,Jefferson County,Brookville,15825,"155 Main St.
Brookville, PA 15825
(814) 849-1603"
PA,Elk County,Byrnedale,15827,"300 Center St., P.O. Box 448
Ridgway, PA 15853-0448
(814) 776-5337"
PA,Jefferson County,Clarington,15828,"155 Main St.
Brookville, PA 15825
(814) 849-1603"
PA,Jefferson County,Corsica,15829,"155 Main St.
Brookville, PA 15825
(814) 849-1603"
PA,Cameron County,Driftwood,15832,"20 E. 5th St.
Emporium, PA 15834
(814) 486-2315"
PA,Cameron County,Emporium,15834,"20 E. 5th St.
Emporium, PA 15834
(814) 486-2315"
PA,Jefferson County,Falls Creek,15840,"155 Main St.
Brookville, PA 15825
(814) 849-1603"
PA,Elk County,Johnsonburg,15845,"300 Center St., P.O. Box 448
Ridgway, PA 15853-0448
(814) 776-5337"
PA,Elk County,Kersey,15846,"300 Center St., P.O. Box 448
Ridgway, PA 15853-0448
(814) 776-5337"
PA,Clearfield County,Luthersburg,15848,"212 E Locust St.
Clearfield, PA 16830
(814) 765-2642"
PA,Clearfield County,Penfield,15849,"212 E Locust St.
Clearfield, PA 16830
(814) 765-2642"
PA,Jefferson County,Reynoldsville,15851,"155 Main St.
Brookville, PA 15825
(814) 849-1603"
PA,Elk County,Ridgway,15853,"300 Center St., P.O. Box 448
Ridgway, PA 15853-0448
(814) 776-5337"
PA,Clearfield County,Rockton,15856,"212 E Locust St.
Clearfield, PA 16830
(814) 765-2642"
PA,Elk County,Saint Marys,15857,"300 Center St., P.O. Box 448
Ridgway, PA 15853-0448
(814) 776-5337"
PA,Jefferson County,Sigel,15860,"155 Main St.
Brookville, PA 15825
(814) 849-1603"
PA,Cameron County,Sinnamahoning,15861,"20 E. 5th St.
Emporium, PA 15834
(814) 486-2315"
PA,Jefferson County,Summerville,15864,"155 Main St.
Brookville, PA 15825
(814) 849-1603"
PA,Jefferson County,Sykesville,15865,"155 Main St.
Brookville, PA 15825
(814) 849-1603"
PA,Clearfield County,Troutville,15866,"212 E Locust St.
Clearfield, PA 16830
(814) 765-2642"
PA,Elk County,Weedville,15868,"300 Center St., P.O. Box 448
Ridgway, PA 15853-0448
(814) 776-5337"
PA,Elk County,Wilcox,15870,"300 Center St., P.O. Box 448
Ridgway, PA 15853-0448
(814) 776-5337"
PA,Cambria County,Johnstown,15901,"200 S. Center St.
Ebensburg, PA 15931
(814) 472-1464"
PA,Cambria County,Johnstown,15902,"200 S. Center St.
Ebensburg, PA 15931
(814) 472-1464"
PA,Cambria County,Johnstown,15904,"200 S. Center St.
Ebensburg, PA 15931
(814) 472-1464"
PA,Cambria County,Johnstown,15905,"200 S. Center St.
Ebensburg, PA 15931
(814) 472-1464"
PA,Cambria County,Johnstown,15906,"200 S. Center St.
Ebensburg, PA 15931
(814) 472-1464"
PA,Cambria County,Johnstown,15909,"200 S. Center St.
Ebensburg, PA 15931
(814) 472-1464"
PA,Cambria County,Johnstown,15915,"200 S. Center St.
Ebensburg, PA 15931
(814) 472-1464"
PA,Indiana County,Armagh,15920,"825 Philadelphia St.
Indiana, PA 15701-3934
(724) 465-3805"
PA,Westmoreland County,Bolivar,15923,"2 N. Main St.
Greensburg, PA 15601
(724) 830-3150"
PA,Somerset County,Cairnbrook,15924,"300 N. Center Ave., Ste. 340
Somerset, PA 15501
(814) 445-1549

"
PA,Somerset County,Central City,15926,"300 N. Center Ave., Ste. 340
Somerset, PA 15501
(814) 445-1549

"
PA,Cambria County,Colver,15927,"200 S. Center St.
Ebensburg, PA 15931
(814) 472-1464"
PA,Somerset County,Davidsville,15928,"300 N. Center Ave., Ste. 340
Somerset, PA 15501
(814) 445-1549

"
PA,Cambria County,Ebensburg,15931,"200 S. Center St.
Ebensburg, PA 15931
(814) 472-1464"
PA,Somerset County,Hollsopple,15935,"300 N. Center Ave., Ste. 340
Somerset, PA 15501
(814) 445-1549

"
PA,Somerset County,Hooversville,15936,"300 N. Center Ave., Ste. 340
Somerset, PA 15501
(814) 445-1549

"
PA,Cambria County,Lilly,15938,"200 S. Center St.
Ebensburg, PA 15931
(814) 472-1464"
PA,Cambria County,Loretto,15940,"200 S. Center St.
Ebensburg, PA 15931
(814) 472-1464"
PA,Cambria County,Mineral Point,15942,"200 S. Center St.
Ebensburg, PA 15931
(814) 472-1464"
PA,Cambria County,Nanty Glo,15943,"200 S. Center St.
Ebensburg, PA 15931
(814) 472-1464"
PA,Westmoreland County,New Florence,15944,"2 N. Main St.
Greensburg, PA 15601
(724) 830-3150"
PA,Cambria County,Parkhill,15945,"200 S. Center St.
Ebensburg, PA 15931
(814) 472-1464"
PA,Cambria County,Portage,15946,"200 S. Center St.
Ebensburg, PA 15931
(814) 472-1464"
PA,Indiana County,Robinson,15949,"825 Philadelphia St.
Indiana, PA 15701-3934
(724) 465-3805"
PA,Cambria County,Salix,15952,"200 S. Center St.
Ebensburg, PA 15931
(814) 472-1464"
PA,Somerset County,Seanor,15953,"300 N. Center Ave., Ste. 340
Somerset, PA 15501
(814) 445-1549

"
PA,Indiana County,Seward,15954,"825 Philadelphia St.
Indiana, PA 15701-3934
(724) 465-3805"
PA,Cambria County,Sidman,15955,"200 S. Center St.
Ebensburg, PA 15931
(814) 472-1464"
PA,Cambria County,South Fork,15956,"200 S. Center St.
Ebensburg, PA 15931
(814) 472-1464"
PA,Indiana County,Strongstown,15957,"825 Philadelphia St.
Indiana, PA 15701-3934
(724) 465-3805"
PA,Cambria County,Summerhill,15958,"200 S. Center St.
Ebensburg, PA 15931
(814) 472-1464"
PA,Indiana County,Vintondale,15961,"825 Philadelphia St.
Indiana, PA 15701-3934
(724) 465-3805"
PA,Somerset County,Windber,15963,"300 N. Center Ave., Ste. 340
Somerset, PA 15501
(814) 445-1549

"
PA,Butler County,Butler,16001,"124 West Diamond St
Butler, PA 16001
(724) 284-5308"
PA,Butler County,Butler,16002,"124 West Diamond St
Butler, PA 16001
(724) 284-5308"
PA,Butler County,Boyers,16020,"124 West Diamond St
Butler, PA 16001
(724) 284-5308"
PA,Butler County,Branchton,16021,"124 West Diamond St
Butler, PA 16001
(724) 284-5308"
PA,Butler County,Cabot,16023,"124 West Diamond St
Butler, PA 16001
(724) 284-5308"
PA,Butler County,Chicora,16025,"124 West Diamond St
Butler, PA 16001
(724) 284-5308"
PA,Clarion County,East Brady,16028,"330 Main Street
Rm 104
Clarion, PA 16214
(814) 226-4000"
PA,Butler County,Evans City,16033,"124 West Diamond St
Butler, PA 16001
(724) 284-5308"
PA,Butler County,Fenelton,16034,"124 West Diamond St
Butler, PA 16001
(724) 284-5308"
PA,Butler County,Harmony,16037,"124 West Diamond St
Butler, PA 16001
(724) 284-5308"
PA,Butler County,Harrisville,16038,"124 West Diamond St
Butler, PA 16001
(724) 284-5308"
PA,Butler County,Hilliards,16040,"124 West Diamond St
Butler, PA 16001
(724) 284-5308"
PA,Butler County,Karns City,16041,"124 West Diamond St
Butler, PA 16001
(724) 284-5308"
PA,Butler County,Lyndora,16045,"124 West Diamond St
Butler, PA 16001
(724) 284-5308"
PA,Butler County,Mars,16046,"124 West Diamond St
Butler, PA 16001
(724) 284-5308"
PA,Clarion County,Parker,16049,"330 Main Street
Rm 104
Clarion, PA 16214
(814) 226-4000"
PA,Butler County,Petrolia,16050,"124 West Diamond St
Butler, PA 16001
(724) 284-5308"
PA,Butler County,Portersville,16051,"124 West Diamond St
Butler, PA 16001
(724) 284-5308"
PA,Butler County,Prospect,16052,"124 West Diamond St
Butler, PA 16001
(724) 284-5308"
PA,Butler County,Renfrew,16053,"124 West Diamond St
Butler, PA 16001
(724) 284-5308"
PA,Butler County,Sarver,16055,"124 West Diamond St
Butler, PA 16001
(724) 284-5308"
PA,Butler County,Saxonburg,16056,"124 West Diamond St
Butler, PA 16001
(724) 284-5308"
PA,Butler County,Slippery Rock,16057,"124 West Diamond St
Butler, PA 16001
(724) 284-5308"
PA,Butler County,Valencia,16059,"124 West Diamond St
Butler, PA 16001
(724) 284-5308"
PA,Butler County,West Sunbury,16061,"124 West Diamond St
Butler, PA 16001
(724) 284-5308"
PA,Butler County,Zelienople,16063,"124 West Diamond St
Butler, PA 16001
(724) 284-5308"
PA,Butler County,Cranberry Twp,16066,"124 West Diamond St
Butler, PA 16001
(724) 284-5308"
PA,Lawrence County,New Castle,16101,"430 Court St.
New Castle, PA 16101-3593
(724) 656-2161"
PA,Lawrence County,New Castle,16102,"430 Court St.
New Castle, PA 16101-3593
(724) 656-2161"
PA,Lawrence County,New Castle,16105,"430 Court St.
New Castle, PA 16101-3593
(724) 656-2161"
PA,Lawrence County,New Castle,16108,"430 Court St.
New Castle, PA 16101-3593
(724) 656-2161"
PA,Crawford County,Adamsville,16110,"903 Diamond Park
Meadville, PA 16335
(814) 333-7307"
PA,Crawford County,Atlantic,16111,"903 Diamond Park
Meadville, PA 16335
(814) 333-7307"
PA,Lawrence County,Bessemer,16112,"430 Court St.
New Castle, PA 16101-3593
(724) 656-2161"
PA,Mercer County,Clarks Mills,16114,"5 Courthouse
Mercer, PA 16137
(724) 662-7542"
PA,Beaver County,Darlington,16115,"810 Third St.
Beaver, PA 15009
(724) 770-4440

"
PA,Lawrence County,Edinburg,16116,"430 Court St.
New Castle, PA 16101-3593
(724) 656-2161"
PA,Lawrence County,Ellwood City,16117,"430 Court St.
New Castle, PA 16101-3593
(724) 656-2161"
PA,Lawrence County,Enon Valley,16120,"430 Court St.
New Castle, PA 16101-3593
(724) 656-2161"
PA,Mercer County,Farrell,16121,"5 Courthouse
Mercer, PA 16137
(724) 662-7542"
PA,Beaver County,Fombell,16123,"810 Third St.
Beaver, PA 15009
(724) 770-4440

"
PA,Mercer County,Fredonia,16124,"5 Courthouse
Mercer, PA 16137
(724) 662-7542"
PA,Mercer County,Greenville,16125,"5 Courthouse
Mercer, PA 16137
(724) 662-7542"
PA,Mercer County,Grove City,16127,"5 Courthouse
Mercer, PA 16137
(724) 662-7542"
PA,Mercer County,Hadley,16130,"5 Courthouse
Mercer, PA 16137
(724) 662-7542"
PA,Crawford County,Hartstown,16131,"903 Diamond Park
Meadville, PA 16335
(814) 333-7307"
PA,Mercer County,Jackson Center,16133,"5 Courthouse
Mercer, PA 16137
(724) 662-7542"
PA,Crawford County,Jamestown,16134,"903 Diamond Park
Meadville, PA 16335
(814) 333-7307"
PA,Mercer County,Mercer,16137,"5 Courthouse
Mercer, PA 16137
(724) 662-7542"
PA,Lawrence County,New Galilee,16141,"430 Court St.
New Castle, PA 16101-3593
(724) 656-2161"
PA,Lawrence County,New Wilmington,16142,"430 Court St.
New Castle, PA 16101-3593
(724) 656-2161"
PA,Lawrence County,Pulaski,16143,"430 Court St.
New Castle, PA 16101-3593
(724) 656-2161"
PA,Mercer County,Sandy Lake,16145,"5 Courthouse
Mercer, PA 16137
(724) 662-7542"
PA,Mercer County,Sharon,16146,"5 Courthouse
Mercer, PA 16137
(724) 662-7542"
PA,Mercer County,Hermitage,16148,"5 Courthouse
Mercer, PA 16137
(724) 662-7542"
PA,Mercer County,Sharpsville,16150,"5 Courthouse
Mercer, PA 16137
(724) 662-7542"
PA,Mercer County,Stoneboro,16153,"5 Courthouse
Mercer, PA 16137
(724) 662-7542"
PA,Mercer County,Transfer,16154,"5 Courthouse
Mercer, PA 16137
(724) 662-7542"
PA,Lawrence County,Volant,16156,"430 Court St.
New Castle, PA 16101-3593
(724) 656-2161"
PA,Lawrence County,Wampum,16157,"430 Court St.
New Castle, PA 16101-3593
(724) 656-2161"
PA,Mercer County,West Middlesex,16159,"5 Courthouse
Mercer, PA 16137
(724) 662-7542"
PA,Armstrong County,Kittanning,16201,"450 East Market St.
Kittanning, PA 16201
(724) 548-3222"
PA,Armstrong County,Adrian,16210,"450 East Market St.
Kittanning, PA 16201
(724) 548-3222"
PA,Clarion County,Clarion,16214,"330 Main Street
Rm 104
Clarion, PA 16214
(814) 226-4000"
PA,Forest County,Cooksburg,16217,"526 Elm St. - Unit #3
Tionesta, PA 16353
(814) 755-3537"
PA,Armstrong County,Cowansville,16218,"450 East Market St.
Kittanning, PA 16201
(724) 548-3222"
PA,Armstrong County,Dayton,16222,"450 East Market St.
Kittanning, PA 16201
(724) 548-3222"
PA,Clarion County,Fairmount City,16224,"330 Main Street
Rm 104
Clarion, PA 16214
(814) 226-4000"
PA,Armstrong County,Ford City,16226,"450 East Market St.
Kittanning, PA 16201
(724) 548-3222"
PA,Armstrong County,Ford Cliff,16228,"450 East Market St.
Kittanning, PA 16201
(724) 548-3222"
PA,Armstrong County,Freeport,16229,"450 East Market St.
Kittanning, PA 16201
(724) 548-3222"
PA,Clarion County,Knox,16232,"330 Main Street
Rm 104
Clarion, PA 16214
(814) 226-4000"
PA,Clarion County,Leeper,16233,"330 Main Street
Rm 104
Clarion, PA 16214
(814) 226-4000"
PA,Clarion County,Lucinda,16235,"330 Main Street
Rm 104
Clarion, PA 16214
(814) 226-4000"
PA,Forest County,Marienville,16239,"526 Elm St. - Unit #3
Tionesta, PA 16353
(814) 755-3537"
PA,Clarion County,Mayport,16240,"330 Main Street
Rm 104
Clarion, PA 16214
(814) 226-4000"
PA,Clarion County,New Bethlehem,16242,"330 Main Street
Rm 104
Clarion, PA 16214
(814) 226-4000"
PA,Clarion County,Rimersburg,16248,"330 Main Street
Rm 104
Clarion, PA 16214
(814) 226-4000"
PA,Armstrong County,Rural Valley,16249,"450 East Market St.
Kittanning, PA 16201
(724) 548-3222"
PA,Armstrong County,Seminole,16253,"450 East Market St.
Kittanning, PA 16201
(724) 548-3222"
PA,Clarion County,Shippenville,16254,"330 Main Street
Rm 104
Clarion, PA 16214
(814) 226-4000"
PA,Clarion County,Sligo,16255,"330 Main Street
Rm 104
Clarion, PA 16214
(814) 226-4000"
PA,Indiana County,Smicksburg,16256,"825 Philadelphia St.
Indiana, PA 15701-3934
(724) 465-3805"
PA,Clarion County,Snydersburg,16257,"330 Main Street
Rm 104
Clarion, PA 16214
(814) 226-4000"
PA,Clarion County,Strattanville,16258,"330 Main Street
Rm 104
Clarion, PA 16214
(814) 226-4000"
PA,Armstrong County,Templeton,16259,"450 East Market St.
Kittanning, PA 16201
(724) 548-3222"
PA,Clarion County,Vowinckel,16260,"330 Main Street
Rm 104
Clarion, PA 16214
(814) 226-4000"
PA,Armstrong County,Widnoon,16261,"450 East Market St.
Kittanning, PA 16201
(724) 548-3222"
PA,Armstrong County,Worthington,16262,"450 East Market St.
Kittanning, PA 16201
(724) 548-3222"
PA,Venango County,Oil City,16301,"1174 Elk St., P.O. Box 831
Franklin, PA 16323
(814) 432-9508"
PA,Mercer County,Carlton,16311,"5 Courthouse
Mercer, PA 16137
(724) 662-7542"
PA,Warren County,Clarendon,16313,"204 4th Ave.
Warren, PA 16365
(814) 728-3406"
PA,Crawford County,Cochranton,16314,"903 Diamond Park
Meadville, PA 16335
(814) 333-7307"
PA,Crawford County,Conneaut Lake,16316,"903 Diamond Park
Meadville, PA 16335
(814) 333-7307"
PA,Venango County,Cooperstown,16317,"1174 Elk St., P.O. Box 831
Franklin, PA 16323
(814) 432-9508"
PA,Venango County,Cranberry,16319,"1174 Elk St., P.O. Box 831
Franklin, PA 16323
(814) 432-9508"
PA,Venango County,Franklin,16323,"1174 Elk St., P.O. Box 831
Franklin, PA 16323
(814) 432-9508"
PA,Clarion County,Fryburg,16326,"330 Main Street
Rm 104
Clarion, PA 16214
(814) 226-4000"
PA,Crawford County,Guys Mills,16327,"903 Diamond Park
Meadville, PA 16335
(814) 333-7307"
PA,Warren County,Irvine,16329,"204 4th Ave.
Warren, PA 16365
(814) 728-3406"
PA,Clarion County,Kossuth,16331,"330 Main Street
Rm 104
Clarion, PA 16214
(814) 226-4000"
PA,Clarion County,Lickingville,16332,"330 Main Street
Rm 104
Clarion, PA 16214
(814) 226-4000"
PA,Clarion County,Marble,16334,"330 Main Street
Rm 104
Clarion, PA 16214
(814) 226-4000"
PA,Crawford County,Meadville,16335,"903 Diamond Park
Meadville, PA 16335
(814) 333-7307"
PA,Warren County,Pittsfield,16340,"204 4th Ave.
Warren, PA 16365
(814) 728-3406"
PA,Venango County,Pleasantville,16341,"1174 Elk St., P.O. Box 831
Franklin, PA 16323
(814) 432-9508"
PA,Venango County,Polk,16342,"1174 Elk St., P.O. Box 831
Franklin, PA 16323
(814) 432-9508"
PA,Warren County,Russell,16345,"204 4th Ave.
Warren, PA 16365
(814) 728-3406"
PA,Venango County,Seneca,16346,"1174 Elk St., P.O. Box 831
Franklin, PA 16323
(814) 432-9508"
PA,Warren County,Sheffield,16347,"204 4th Ave.
Warren, PA 16365
(814) 728-3406"
PA,Warren County,Sugar Grove,16350,"204 4th Ave.
Warren, PA 16365
(814) 728-3406"
PA,Warren County,Tidioute,16351,"204 4th Ave.
Warren, PA 16365
(814) 728-3406"
PA,Forest County,Tionesta,16353,"526 Elm St. - Unit #3
Tionesta, PA 16353
(814) 755-3537"
PA,Crawford County,Titusville,16354,"903 Diamond Park
Meadville, PA 16335
(814) 333-7307"
PA,Crawford County,Townville,16360,"903 Diamond Park
Meadville, PA 16335
(814) 333-7307"
PA,Venango County,Utica,16362,"1174 Elk St., P.O. Box 831
Franklin, PA 16323
(814) 432-9508"
PA,Venango County,Venus,16364,"1174 Elk St., P.O. Box 831
Franklin, PA 16323
(814) 432-9508"
PA,Warren County,Warren,16365,"204 4th Ave.
Warren, PA 16365
(814) 728-3406"
PA,Warren County,Youngsville,16371,"204 4th Ave.
Warren, PA 16365
(814) 728-3406"
PA,Venango County,Emlenton,16373,"1174 Elk St., P.O. Box 831
Franklin, PA 16323
(814) 432-9508"
PA,Venango County,Kennerdell,16374,"1174 Elk St., P.O. Box 831
Franklin, PA 16323
(814) 432-9508"
PA,Erie County,Albion,16401,"140 W. 6th St., Rm. 112
Erie, PA 16501
(814) 451-6276"
PA,Warren County,Bear Lake,16402,"204 4th Ave.
Warren, PA 16365
(814) 728-3406"
PA,Crawford County,Cambridge Springs,16403,"903 Diamond Park
Meadville, PA 16335
(814) 333-7307"
PA,Crawford County,Centerville,16404,"903 Diamond Park
Meadville, PA 16335
(814) 333-7307"
PA,Warren County,Columbus,16405,"204 4th Ave.
Warren, PA 16365
(814) 728-3406"
PA,Crawford County,Conneautville,16406,"903 Diamond Park
Meadville, PA 16335
(814) 333-7307"
PA,Erie County,Corry,16407,"140 W. 6th St., Rm. 112
Erie, PA 16501
(814) 451-6276"
PA,Erie County,Cranesville,16410,"140 W. 6th St., Rm. 112
Erie, PA 16501
(814) 451-6276"
PA,Erie County,East Springfield,16411,"140 W. 6th St., Rm. 112
Erie, PA 16501
(814) 451-6276"
PA,Erie County,Edinboro,16412,"140 W. 6th St., Rm. 112
Erie, PA 16501
(814) 451-6276"
PA,Erie County,Fairview,16415,"140 W. 6th St., Rm. 112
Erie, PA 16501
(814) 451-6276"
PA,Erie County,Girard,16417,"140 W. 6th St., Rm. 112
Erie, PA 16501
(814) 451-6276"
PA,Warren County,Grand Valley,16420,"204 4th Ave.
Warren, PA 16365
(814) 728-3406"
PA,Erie County,Harborcreek,16421,"140 W. 6th St., Rm. 112
Erie, PA 16501
(814) 451-6276"
PA,Erie County,Lake City,16423,"140 W. 6th St., Rm. 112
Erie, PA 16501
(814) 451-6276"
PA,Crawford County,Linesville,16424,"903 Diamond Park
Meadville, PA 16335
(814) 333-7307"
PA,Erie County,Mc Kean,16426,"140 W. 6th St., Rm. 112
Erie, PA 16501
(814) 451-6276"
PA,Erie County,North East,16428,"140 W. 6th St., Rm. 112
Erie, PA 16501
(814) 451-6276"
PA,Erie County,North Springfield,16430,"140 W. 6th St., Rm. 112
Erie, PA 16501
(814) 451-6276"
PA,Crawford County,Riceville,16432,"903 Diamond Park
Meadville, PA 16335
(814) 333-7307"
PA,Crawford County,Saegertown,16433,"903 Diamond Park
Meadville, PA 16335
(814) 333-7307"
PA,Crawford County,Spartansburg,16434,"903 Diamond Park
Meadville, PA 16335
(814) 333-7307"
PA,Crawford County,Springboro,16435,"903 Diamond Park
Meadville, PA 16335
(814) 333-7307"
PA,Warren County,Spring Creek,16436,"204 4th Ave.
Warren, PA 16365
(814) 728-3406"
PA,Erie County,Union City,16438,"140 W. 6th St., Rm. 112
Erie, PA 16501
(814) 451-6276"
PA,Crawford County,Venango,16440,"903 Diamond Park
Meadville, PA 16335
(814) 333-7307"
PA,Erie County,Waterford,16441,"140 W. 6th St., Rm. 112
Erie, PA 16501
(814) 451-6276"
PA,Erie County,Wattsburg,16442,"140 W. 6th St., Rm. 112
Erie, PA 16501
(814) 451-6276"
PA,Erie County,West Springfield,16443,"140 W. 6th St., Rm. 112
Erie, PA 16501
(814) 451-6276"
PA,Erie County,Erie,16501,"140 W. 6th St., Rm. 112
Erie, PA 16501
(814) 451-6276"
PA,Erie County,Erie,16502,"140 W. 6th St., Rm. 112
Erie, PA 16501
(814) 451-6276"
PA,Erie County,Erie,16503,"140 W. 6th St., Rm. 112
Erie, PA 16501
(814) 451-6276"
PA,Erie County,Erie,16504,"140 W. 6th St., Rm. 112
Erie, PA 16501
(814) 451-6276"
PA,Erie County,Erie,16505,"140 W. 6th St., Rm. 112
Erie, PA 16501
(814) 451-6276"
PA,Erie County,Erie,16506,"140 W. 6th St., Rm. 112
Erie, PA 16501
(814) 451-6276"
PA,Erie County,Erie,16507,"140 W. 6th St., Rm. 112
Erie, PA 16501
(814) 451-6276"
PA,Erie County,Erie,16508,"140 W. 6th St., Rm. 112
Erie, PA 16501
(814) 451-6276"
PA,Erie County,Erie,16509,"140 W. 6th St., Rm. 112
Erie, PA 16501
(814) 451-6276"
PA,Erie County,Erie,16510,"140 W. 6th St., Rm. 112
Erie, PA 16501
(814) 451-6276"
PA,Erie County,Erie,16511,"140 W. 6th St., Rm. 112
Erie, PA 16501
(814) 451-6276"
PA,Erie County,Erie,16515,"140 W. 6th St., Rm. 112
Erie, PA 16501
(814) 451-6276"
PA,Erie County,Erie,16541,"140 W. 6th St., Rm. 112
Erie, PA 16501
(814) 451-6276"
PA,Erie County,Erie,16544,"140 W. 6th St., Rm. 112
Erie, PA 16501
(814) 451-6276"
PA,Erie County,Erie,16546,"140 W. 6th St., Rm. 112
Erie, PA 16501
(814) 451-6276"
PA,Erie County,Erie,16550,"140 W. 6th St., Rm. 112
Erie, PA 16501
(814) 451-6276"
PA,Erie County,Erie,16563,"140 W. 6th St., Rm. 112
Erie, PA 16501
(814) 451-6276"
PA,Erie County,Erie,16565,"140 W. 6th St., Rm. 112
Erie, PA 16501
(814) 451-6276"
PA,Blair County,Altoona,16601,"423 Allegheny St., Suite 047
Hollidaysburg, PA 16648-9978
(814) 693-3150"
PA,Blair County,Altoona,16602,"423 Allegheny St., Suite 047
Hollidaysburg, PA 16648-9978
(814) 693-3150"
PA,Huntingdon County,Alexandria,16611,"223 Penn St. - Courthouse
Huntingdon, PA 16652
(814) 643-3091"
PA,Cambria County,Ashville,16613,"200 S. Center St.
Ebensburg, PA 15931
(814) 472-1464"
PA,Clearfield County,Beccaria,16616,"212 E Locust St.
Clearfield, PA 16830
(814) 765-2642"
PA,Blair County,Bellwood,16617,"423 Allegheny St., Suite 047
Hollidaysburg, PA 16648-9978
(814) 693-3150"
PA,Huntingdon County,Broad Top,16621,"223 Penn St. - Courthouse
Huntingdon, PA 16652
(814) 643-3091"
PA,Huntingdon County,Calvin,16622,"223 Penn St. - Courthouse
Huntingdon, PA 16652
(814) 643-3091"
PA,Huntingdon County,Cassville,16623,"223 Penn St. - Courthouse
Huntingdon, PA 16652
(814) 643-3091"
PA,Blair County,Claysburg,16625,"423 Allegheny St., Suite 047
Hollidaysburg, PA 16648-9978
(814) 693-3150"
PA,Clearfield County,Coalport,16627,"212 E Locust St.
Clearfield, PA 16830
(814) 765-2642"
PA,Cambria County,Coupon,16629,"200 S. Center St.
Ebensburg, PA 15931
(814) 472-1464"
PA,Cambria County,Cresson,16630,"200 S. Center St.
Ebensburg, PA 15931
(814) 472-1464"
PA,Blair County,Duncansville,16635,"423 Allegheny St., Suite 047
Hollidaysburg, PA 16648-9978
(814) 693-3150"
PA,Cambria County,Dysart,16636,"200 S. Center St.
Ebensburg, PA 15931
(814) 472-1464"
PA,Blair County,East Freedom,16637,"423 Allegheny St., Suite 047
Hollidaysburg, PA 16648-9978
(814) 693-3150"
PA,Huntingdon County,Entriken,16638,"223 Penn St. - Courthouse
Huntingdon, PA 16652
(814) 643-3091"
PA,Cambria County,Fallentimber,16639,"200 S. Center St.
Ebensburg, PA 15931
(814) 472-1464"
PA,Cambria County,Flinton,16640,"200 S. Center St.
Ebensburg, PA 15931
(814) 472-1464"
PA,Cambria County,Gallitzin,16641,"200 S. Center St.
Ebensburg, PA 15931
(814) 472-1464"
PA,Cambria County,Hastings,16646,"200 S. Center St.
Ebensburg, PA 15931
(814) 472-1464"
PA,Huntingdon County,Hesston,16647,"223 Penn St. - Courthouse
Huntingdon, PA 16652
(814) 643-3091"
PA,Blair County,Hollidaysburg,16648,"423 Allegheny St., Suite 047
Hollidaysburg, PA 16648-9978
(814) 693-3150"
PA,Bedford County,Hopewell,16650,"200 S. Juliana Street
Bedford, PA 15522
(814) 623-4807"
PA,Clearfield County,Houtzdale,16651,"212 E Locust St.
Clearfield, PA 16830
(814) 765-2642"
PA,Huntingdon County,Huntingdon,16652,"223 Penn St. - Courthouse
Huntingdon, PA 16652
(814) 643-3091"
PA,Bedford County,Imler,16655,"200 S. Juliana Street
Bedford, PA 15522
(814) 623-4807"
PA,Clearfield County,Irvona,16656,"212 E Locust St.
Clearfield, PA 16830
(814) 765-2642"
PA,Huntingdon County,James Creek,16657,"223 Penn St. - Courthouse
Huntingdon, PA 16652
(814) 643-3091"
PA,Bedford County,Loysburg,16659,"200 S. Juliana Street
Bedford, PA 15522
(814) 623-4807"
PA,Clearfield County,Madera,16661,"212 E Locust St.
Clearfield, PA 16830
(814) 765-2642"
PA,Blair County,Martinsburg,16662,"423 Allegheny St., Suite 047
Hollidaysburg, PA 16648-9978
(814) 693-3150"
PA,Bedford County,New Enterprise,16664,"200 S. Juliana Street
Bedford, PA 15522
(814) 623-4807"
PA,Clearfield County,Osceola Mills,16666,"212 E Locust St.
Clearfield, PA 16830
(814) 765-2642"
PA,Bedford County,Osterburg,16667,"200 S. Juliana Street
Bedford, PA 15522
(814) 623-4807"
PA,Cambria County,Patton,16668,"200 S. Center St.
Ebensburg, PA 15931
(814) 472-1464"
PA,Huntingdon County,Petersburg,16669,"223 Penn St. - Courthouse
Huntingdon, PA 16652
(814) 643-3091"
PA,Bedford County,Queen,16670,"200 S. Juliana Street
Bedford, PA 15522
(814) 623-4807"
PA,Blair County,Roaring Spring,16673,"423 Allegheny St., Suite 047
Hollidaysburg, PA 16648-9978
(814) 693-3150"
PA,Huntingdon County,Robertsdale,16674,"223 Penn St. - Courthouse
Huntingdon, PA 16652
(814) 643-3091"
PA,Bedford County,Saxton,16678,"200 S. Juliana Street
Bedford, PA 15522
(814) 623-4807"
PA,Bedford County,Six Mile Run,16679,"200 S. Juliana Street
Bedford, PA 15522
(814) 623-4807"
PA,Clearfield County,Smithmill,16680,"212 E Locust St.
Clearfield, PA 16830
(814) 765-2642"
PA,Blair County,Sproul,16682,"423 Allegheny St., Suite 047
Hollidaysburg, PA 16648-9978
(814) 693-3150"
PA,Huntingdon County,Spruce Creek,16683,"223 Penn St. - Courthouse
Huntingdon, PA 16652
(814) 643-3091"
PA,Huntingdon County,Todd,16685,"223 Penn St. - Courthouse
Huntingdon, PA 16652
(814) 643-3091"
PA,Blair County,Tyrone,16686,"423 Allegheny St., Suite 047
Hollidaysburg, PA 16648-9978
(814) 693-3150"
PA,Fulton County,Waterfall,16689,"116 W. Market St., Ste 205
McConnellsburg, PA 17233
(717) 485-6864"
PA,Fulton County,Wells Tannery,16691,"116 W. Market St., Ste 205
McConnellsburg, PA 17233
(717) 485-6864"
PA,Clearfield County,Westover,16692,"212 E Locust St.
Clearfield, PA 16830
(814) 765-2642"
PA,Blair County,Williamsburg,16693,"423 Allegheny St., Suite 047
Hollidaysburg, PA 16648-9978
(814) 693-3150"
PA,Bedford County,Woodbury,16695,"200 S. Juliana Street
Bedford, PA 15522
(814) 623-4807"
PA,McKean County,Bradford,16701,"500 W. Main St.
Smethport, PA 16749
(814) 887-3203"
PA,Potter County,Austin,16720,"1 N. Main St.
Coudersport, PA 16915
(814) 274-8467"
PA,McKean County,Cyclone,16726,"500 W. Main St.
Smethport, PA 16749
(814) 887-3203"
PA,McKean County,Derrick City,16727,"500 W. Main St.
Smethport, PA 16749
(814) 887-3203"
PA,Elk County,De Young,16728,"300 Center St., P.O. Box 448
Ridgway, PA 15853-0448
(814) 776-5337"
PA,McKean County,Duke Center,16729,"500 W. Main St.
Smethport, PA 16749
(814) 887-3203"
PA,McKean County,Eldred,16731,"500 W. Main St.
Smethport, PA 16749
(814) 887-3203"
PA,McKean County,Gifford,16732,"500 W. Main St.
Smethport, PA 16749
(814) 887-3203"
PA,McKean County,Kane,16735,"500 W. Main St.
Smethport, PA 16749
(814) 887-3203"
PA,McKean County,Lewis Run,16738,"500 W. Main St.
Smethport, PA 16749
(814) 887-3203"
PA,McKean County,Mount Jewett,16740,"500 W. Main St.
Smethport, PA 16749
(814) 887-3203"
PA,McKean County,Port Allegany,16743,"500 W. Main St.
Smethport, PA 16749
(814) 887-3203"
PA,McKean County,Rew,16744,"500 W. Main St.
Smethport, PA 16749
(814) 887-3203"
PA,McKean County,Rixford,16745,"500 W. Main St.
Smethport, PA 16749
(814) 887-3203"
PA,Potter County,Roulette,16746,"1 N. Main St.
Coudersport, PA 16915
(814) 274-8467"
PA,Potter County,Shinglehouse,16748,"1 N. Main St.
Coudersport, PA 16915
(814) 274-8467"
PA,McKean County,Smethport,16749,"500 W. Main St.
Smethport, PA 16749
(814) 887-3203"
PA,McKean County,Turtlepoint,16750,"500 W. Main St.
Smethport, PA 16749
(814) 887-3203"
PA,Centre County,State College,16801,"420 Holmes St.
Bellefonte, PA 16823-1488
(814) 355-6703"
PA,Centre County,University Park,16802,"420 Holmes St.
Bellefonte, PA 16823-1488
(814) 355-6703"
PA,Centre County,State College,16803,"420 Holmes St.
Bellefonte, PA 16823-1488
(814) 355-6703"
PA,Centre County,Aaronsburg,16820,"420 Holmes St.
Bellefonte, PA 16823-1488
(814) 355-6703"
PA,Clearfield County,Allport,16821,"212 E Locust St.
Clearfield, PA 16830
(814) 765-2642"
PA,Clinton County,Beech Creek,16822,"2 Piper Way, Suite 309
Lock Haven, PA 17745-0928
(570) 893-4019"
PA,Centre County,Bellefonte,16823,"420 Holmes St.
Bellefonte, PA 16823-1488
(814) 355-6703"
PA,Centre County,Boalsburg,16827,"420 Holmes St.
Bellefonte, PA 16823-1488
(814) 355-6703"
PA,Centre County,Centre Hall,16828,"420 Holmes St.
Bellefonte, PA 16823-1488
(814) 355-6703"
PA,Centre County,Clarence,16829,"420 Holmes St.
Bellefonte, PA 16823-1488
(814) 355-6703"
PA,Clearfield County,Clearfield,16830,"212 E Locust St.
Clearfield, PA 16830
(814) 765-2642"
PA,Centre County,Coburn,16832,"420 Holmes St.
Bellefonte, PA 16823-1488
(814) 355-6703"
PA,Clearfield County,Curwensville,16833,"212 E Locust St.
Clearfield, PA 16830
(814) 765-2642"
PA,Clearfield County,Frenchville,16836,"212 E Locust St.
Clearfield, PA 16830
(814) 765-2642"
PA,Clearfield County,Glen Richey,16837,"212 E Locust St.
Clearfield, PA 16830
(814) 765-2642"
PA,Clearfield County,Grampian,16838,"212 E Locust St.
Clearfield, PA 16830
(814) 765-2642"
PA,Clearfield County,Grassflat,16839,"212 E Locust St.
Clearfield, PA 16830
(814) 765-2642"
PA,Clearfield County,Hawk Run,16840,"212 E Locust St.
Clearfield, PA 16830
(814) 765-2642"
PA,Centre County,Howard,16841,"420 Holmes St.
Bellefonte, PA 16823-1488
(814) 355-6703"
PA,Centre County,Julian,16844,"420 Holmes St.
Bellefonte, PA 16823-1488
(814) 355-6703"
PA,Clearfield County,Karthaus,16845,"212 E Locust St.
Clearfield, PA 16830
(814) 765-2642"
PA,Clearfield County,Lecontes Mills,16850,"212 E Locust St.
Clearfield, PA 16830
(814) 765-2642"
PA,Centre County,Madisonburg,16852,"420 Holmes St.
Bellefonte, PA 16823-1488
(814) 355-6703"
PA,Centre County,Millheim,16854,"420 Holmes St.
Bellefonte, PA 16823-1488
(814) 355-6703"
PA,Clearfield County,Morrisdale,16858,"212 E Locust St.
Clearfield, PA 16830
(814) 765-2642"
PA,Centre County,Moshannon,16859,"420 Holmes St.
Bellefonte, PA 16823-1488
(814) 355-6703"
PA,Clearfield County,Munson,16860,"212 E Locust St.
Clearfield, PA 16830
(814) 765-2642"
PA,Clearfield County,New Millport,16861,"212 E Locust St.
Clearfield, PA 16830
(814) 765-2642"
PA,Clearfield County,Olanta,16863,"212 E Locust St.
Clearfield, PA 16830
(814) 765-2642"
PA,Centre County,Orviston,16864,"420 Holmes St.
Bellefonte, PA 16823-1488
(814) 355-6703"
PA,Centre County,Pennsylvania Furnace,16865,"420 Holmes St.
Bellefonte, PA 16823-1488
(814) 355-6703"
PA,Centre County,Philipsburg,16866,"420 Holmes St.
Bellefonte, PA 16823-1488
(814) 355-6703"
PA,Centre County,Port Matilda,16870,"420 Holmes St.
Bellefonte, PA 16823-1488
(814) 355-6703"
PA,Clearfield County,Pottersdale,16871,"212 E Locust St.
Clearfield, PA 16830
(814) 765-2642"
PA,Centre County,Rebersburg,16872,"420 Holmes St.
Bellefonte, PA 16823-1488
(814) 355-6703"
PA,Centre County,Snow Shoe,16874,"420 Holmes St.
Bellefonte, PA 16823-1488
(814) 355-6703"
PA,Centre County,Spring Mills,16875,"420 Holmes St.
Bellefonte, PA 16823-1488
(814) 355-6703"
PA,Huntingdon County,Warriors Mark,16877,"223 Penn St. - Courthouse
Huntingdon, PA 16652
(814) 643-3091"
PA,Clearfield County,West Decatur,16878,"212 E Locust St.
Clearfield, PA 16830
(814) 765-2642"
PA,Clearfield County,Winburne,16879,"212 E Locust St.
Clearfield, PA 16830
(814) 765-2642"
PA,Clearfield County,Woodland,16881,"212 E Locust St.
Clearfield, PA 16830
(814) 765-2642"
PA,Centre County,Woodward,16882,"420 Holmes St.
Bellefonte, PA 16823-1488
(814) 355-6703"
PA,Tioga County,Wellsboro,16901,"118 Main St.
Wellsboro, PA 16901
(570) 723-8230

"
PA,Bradford County,Alba,16910,"6 Court St., Ste. 2
Towanda, PA 18848
(570) 265-1717"
PA,Tioga County,Blossburg,16912,"118 Main St.
Wellsboro, PA 16901
(570) 723-8230

"
PA,Bradford County,Columbia Cross Roads,16914,"6 Court St., Ste. 2
Towanda, PA 18848
(570) 265-1717"
PA,Potter County,Coudersport,16915,"1 N. Main St.
Coudersport, PA 16915
(814) 274-8467"
PA,Tioga County,Covington,16917,"118 Main St.
Wellsboro, PA 16901
(570) 723-8230

"
PA,Tioga County,Cowanesque,16918,"118 Main St.
Wellsboro, PA 16901
(570) 723-8230

"
PA,Tioga County,Elkland,16920,"118 Main St.
Wellsboro, PA 16901
(570) 723-8230

"
PA,Tioga County,Gaines,16921,"118 Main St.
Wellsboro, PA 16901
(570) 723-8230

"
PA,Potter County,Galeton,16922,"1 N. Main St.
Coudersport, PA 16915
(814) 274-8467"
PA,Potter County,Genesee,16923,"1 N. Main St.
Coudersport, PA 16915
(814) 274-8467"
PA,Bradford County,Gillett,16925,"6 Court St., Ste. 2
Towanda, PA 18848
(570) 265-1717"
PA,Bradford County,Granville Summit,16926,"6 Court St., Ste. 2
Towanda, PA 18848
(570) 265-1717"
PA,Potter County,Harrison Valley,16927,"1 N. Main St.
Coudersport, PA 16915
(814) 274-8467"
PA,Tioga County,Knoxville,16928,"118 Main St.
Wellsboro, PA 16901
(570) 723-8230

"
PA,Tioga County,Lawrenceville,16929,"118 Main St.
Wellsboro, PA 16901
(570) 723-8230

"
PA,Tioga County,Liberty,16930,"118 Main St.
Wellsboro, PA 16901
(570) 723-8230

"
PA,Tioga County,Mainesburg,16932,"118 Main St.
Wellsboro, PA 16901
(570) 723-8230

"
PA,Tioga County,Mansfield,16933,"118 Main St.
Wellsboro, PA 16901
(570) 723-8230

"
PA,Tioga County,Middlebury Center,16935,"118 Main St.
Wellsboro, PA 16901
(570) 723-8230

"
PA,Tioga County,Millerton,16936,"118 Main St.
Wellsboro, PA 16901
(570) 723-8230

"
PA,Potter County,Mills,16937,"1 N. Main St.
Coudersport, PA 16915
(814) 274-8467"
PA,Tioga County,Morris,16938,"118 Main St.
Wellsboro, PA 16901
(570) 723-8230

"
PA,Potter County,Genesee,16941,"1 N. Main St.
Coudersport, PA 16915
(814) 274-8467"
PA,Tioga County,Osceola,16942,"118 Main St.
Wellsboro, PA 16901
(570) 723-8230

"
PA,Tioga County,Sabinsville,16943,"118 Main St.
Wellsboro, PA 16901
(570) 723-8230

"
PA,Tioga County,Tioga,16946,"118 Main St.
Wellsboro, PA 16901
(570) 723-8230

"
PA,Bradford County,Troy,16947,"6 Court St., Ste. 2
Towanda, PA 18848
(570) 265-1717"
PA,Potter County,Ulysses,16948,"1 N. Main St.
Coudersport, PA 16915
(814) 274-8467"
PA,Tioga County,Westfield,16950,"118 Main St.
Wellsboro, PA 16901
(570) 723-8230

"
PA,Mifflin County,Allensville,17002,"20 N. Wayne St.
Lewistown, PA 17044
(717) 248-6571"
PA,Lebanon County,Annville,17003,"400 South 8th Street
Lebanon, PA 17042
(717) 228-4428"
PA,Mifflin County,Belleville,17004,"20 N. Wayne St.
Lewistown, PA 17044
(717) 248-6571"
PA,Perry County,Blain,17006,"P.O. Box 37
New Bloomfield, PA 17068
(717) 582-2131"
PA,Cumberland County,Boiling Springs,17007,"1601 Ritner Highway
Carlisle, PA 17013
(717) 240-6385"
PA,Mifflin County,Burnham,17009,"20 N. Wayne St.
Lewistown, PA 17044
(717) 248-6571"
PA,Cumberland County,Camp Hill,17011,"1601 Ritner Highway
Carlisle, PA 17013
(717) 240-6385"
PA,Cumberland County,Carlisle,17013,"1601 Ritner Highway
Carlisle, PA 17013
(717) 240-6385"
PA,Juniata County,Cocolamus,17014,"Bridge St.
P.O. Box 68
Mifflintown, PA 17059
(717) 436-7706"
PA,Cumberland County,Carlisle,17015,"1601 Ritner Highway
Carlisle, PA 17013
(717) 240-6385"
PA,Northumberland County,Dalmatia,17017,"320 North Second Street,Suite 1
Sunbury, PA 17801
(570) 988-4209"
PA,Dauphin County,Dauphin,17018,"Dauphin Co. - 2 S. 2nd St.
P.O. Box 1295
Harrisburg, PA 17108-1295
(717) 780-6360"
PA,York County,Dillsburg,17019,"28 E. Market St.
York, PA 17401
(717) 771-9604"
PA,Perry County,Duncannon,17020,"P.O. Box 37
New Bloomfield, PA 17068
(717) 582-2131"
PA,Juniata County,East Waterford,17021,"Bridge St.
P.O. Box 68
Mifflintown, PA 17059
(717) 436-7706"
PA,Lancaster County,Elizabethtown,17022,"150 N. Queen St., Ste 117
Lancaster, PA 17603
(717) 299-8293

"
PA,Dauphin County,Elizabethville,17023,"Dauphin Co. - 2 S. 2nd St.
P.O. Box 1295
Harrisburg, PA 17108-1295
(717) 780-6360"
PA,Perry County,Elliottsburg,17024,"P.O. Box 37
New Bloomfield, PA 17068
(717) 582-2131"
PA,Cumberland County,Enola,17025,"1601 Ritner Highway
Carlisle, PA 17013
(717) 240-6385"
PA,Lebanon County,Fredericksburg,17026,"400 South 8th Street
Lebanon, PA 17042
(717) 228-4428"
PA,Dauphin County,Grantville,17028,"Dauphin Co. - 2 S. 2nd St.
P.O. Box 1295
Harrisburg, PA 17108-1295
(717) 780-6360"
PA,Mifflin County,Granville,17029,"20 N. Wayne St.
Lewistown, PA 17044
(717) 248-6571"
PA,Dauphin County,Gratz,17030,"Dauphin Co. - 2 S. 2nd St.
P.O. Box 1295
Harrisburg, PA 17108-1295
(717) 780-6360"
PA,Dauphin County,Halifax,17032,"Dauphin Co. - 2 S. 2nd St.
P.O. Box 1295
Harrisburg, PA 17108-1295
(717) 780-6360"
PA,Dauphin County,Hershey,17033,"Dauphin Co. - 2 S. 2nd St.
P.O. Box 1295
Harrisburg, PA 17108-1295
(717) 780-6360"
PA,Dauphin County,Highspire,17034,"Dauphin Co. - 2 S. 2nd St.
P.O. Box 1295
Harrisburg, PA 17108-1295
(717) 780-6360"
PA,Juniata County,Honey Grove,17035,"Bridge St.
P.O. Box 68
Mifflintown, PA 17059
(717) 436-7706"
PA,Dauphin County,Hummelstown,17036,"Dauphin Co. - 2 S. 2nd St.
P.O. Box 1295
Harrisburg, PA 17108-1295
(717) 780-6360"
PA,Perry County,Ickesburg,17037,"P.O. Box 37
New Bloomfield, PA 17068
(717) 582-2131"
PA,Lebanon County,Jonestown,17038,"400 South 8th Street
Lebanon, PA 17042
(717) 228-4428"
PA,Perry County,Landisburg,17040,"P.O. Box 37
New Bloomfield, PA 17068
(717) 582-2131"
PA,Lebanon County,Lebanon,17042,"400 South 8th Street
Lebanon, PA 17042
(717) 228-4428"
PA,Cumberland County,Lemoyne,17043,"1601 Ritner Highway
Carlisle, PA 17013
(717) 240-6385"
PA,Mifflin County,Lewistown,17044,"20 N. Wayne St.
Lewistown, PA 17044
(717) 248-6571"
PA,Perry County,Liverpool,17045,"P.O. Box 37
New Bloomfield, PA 17068
(717) 582-2131"
PA,Lebanon County,Lebanon,17046,"400 South 8th Street
Lebanon, PA 17042
(717) 228-4428"
PA,Perry County,Loysville,17047,"P.O. Box 37
New Bloomfield, PA 17068
(717) 582-2131"
PA,Dauphin County,Lykens,17048,"Dauphin Co. - 2 S. 2nd St.
P.O. Box 1295
Harrisburg, PA 17108-1295
(717) 780-6360"
PA,Juniata County,Mc Alisterville,17049,"Bridge St.
P.O. Box 68
Mifflintown, PA 17059
(717) 436-7706"
PA,Cumberland County,Mechanicsburg,17050,"1601 Ritner Highway
Carlisle, PA 17013
(717) 240-6385"
PA,Mifflin County,Mc Veytown,17051,"20 N. Wayne St.
Lewistown, PA 17044
(717) 248-6571"
PA,Huntingdon County,Mapleton Depot,17052,"223 Penn St. - Courthouse
Huntingdon, PA 16652
(814) 643-3091"
PA,Perry County,Marysville,17053,"P.O. Box 37
New Bloomfield, PA 17068
(717) 582-2131"
PA,Cumberland County,Mechanicsburg,17055,"1601 Ritner Highway
Carlisle, PA 17013
(717) 240-6385"
PA,Dauphin County,Middletown,17057,"Dauphin Co. - 2 S. 2nd St.
P.O. Box 1295
Harrisburg, PA 17108-1295
(717) 780-6360"
PA,Juniata County,Mifflin,17058,"Bridge St.
P.O. Box 68
Mifflintown, PA 17059
(717) 436-7706"
PA,Juniata County,Mifflintown,17059,"Bridge St.
P.O. Box 68
Mifflintown, PA 17059
(717) 436-7706"
PA,Huntingdon County,Mill Creek,17060,"223 Penn St. - Courthouse
Huntingdon, PA 16652
(814) 643-3091"
PA,Dauphin County,Millersburg,17061,"Dauphin Co. - 2 S. 2nd St.
P.O. Box 1295
Harrisburg, PA 17108-1295
(717) 780-6360"
PA,Perry County,Millerstown,17062,"P.O. Box 37
New Bloomfield, PA 17068
(717) 582-2131"
PA,Mifflin County,Milroy,17063,"20 N. Wayne St.
Lewistown, PA 17044
(717) 248-6571"
PA,Cumberland County,Mount Holly Springs,17065,"1601 Ritner Highway
Carlisle, PA 17013
(717) 240-6385"
PA,Huntingdon County,Mount Union,17066,"223 Penn St. - Courthouse
Huntingdon, PA 16652
(814) 643-3091"
PA,Lebanon County,Myerstown,17067,"400 South 8th Street
Lebanon, PA 17042
(717) 228-4428"
PA,Perry County,New Bloomfield,17068,"P.O. Box 37
New Bloomfield, PA 17068
(717) 582-2131"
PA,Cumberland County,New Cumberland,17070,"1601 Ritner Highway
Carlisle, PA 17013
(717) 240-6385"
PA,Lebanon County,Newmanstown,17073,"400 South 8th Street
Lebanon, PA 17042
(717) 228-4428"
PA,Perry County,Newport,17074,"P.O. Box 37
New Bloomfield, PA 17068
(717) 582-2131"
PA,Juniata County,Oakland Mills,17076,"Bridge St.
P.O. Box 68
Mifflintown, PA 17059
(717) 436-7706"
PA,Lebanon County,Palmyra,17078,"400 South 8th Street
Lebanon, PA 17042
(717) 228-4428"
PA,Juniata County,Port Royal,17082,"Bridge St.
P.O. Box 68
Mifflintown, PA 17059
(717) 436-7706"
PA,Mifflin County,Reedsville,17084,"20 N. Wayne St.
Lewistown, PA 17044
(717) 248-6571"
PA,Juniata County,Richfield,17086,"Bridge St.
P.O. Box 68
Mifflintown, PA 17059
(717) 436-7706"
PA,Lebanon County,Richland,17087,"400 South 8th Street
Lebanon, PA 17042
(717) 228-4428"
PA,Perry County,Shermans Dale,17090,"P.O. Box 37
New Bloomfield, PA 17068
(717) 582-2131"
PA,Juniata County,Thompsontown,17094,"Bridge St.
P.O. Box 68
Mifflintown, PA 17059
(717) 436-7706"
PA,Dauphin County,Williamstown,17098,"Dauphin Co. - 2 S. 2nd St.
P.O. Box 1295
Harrisburg, PA 17108-1295
(717) 780-6360"
PA,Mifflin County,Yeagertown,17099,"20 N. Wayne St.
Lewistown, PA 17044
(717) 248-6571"
PA,Dauphin County,Harrisburg,17101,"Dauphin Co. - 2 S. 2nd St.
P.O. Box 1295
Harrisburg, PA 17108-1295
(717) 780-6360"
PA,Dauphin County,Harrisburg,17102,"Dauphin Co. - 2 S. 2nd St.
P.O. Box 1295
Harrisburg, PA 17108-1295
(717) 780-6360"
PA,Dauphin County,Harrisburg,17103,"Dauphin Co. - 2 S. 2nd St.
P.O. Box 1295
Harrisburg, PA 17108-1295
(717) 780-6360"
PA,Dauphin County,Harrisburg,17104,"Dauphin Co. - 2 S. 2nd St.
P.O. Box 1295
Harrisburg, PA 17108-1295
(717) 780-6360"
PA,Dauphin County,Harrisburg,17109,"Dauphin Co. - 2 S. 2nd St.
P.O. Box 1295
Harrisburg, PA 17108-1295
(717) 780-6360"
PA,Dauphin County,Harrisburg,17110,"Dauphin Co. - 2 S. 2nd St.
P.O. Box 1295
Harrisburg, PA 17108-1295
(717) 780-6360"
PA,Dauphin County,Harrisburg,17111,"Dauphin Co. - 2 S. 2nd St.
P.O. Box 1295
Harrisburg, PA 17108-1295
(717) 780-6360"
PA,Dauphin County,Harrisburg,17112,"Dauphin Co. - 2 S. 2nd St.
P.O. Box 1295
Harrisburg, PA 17108-1295
(717) 780-6360"
PA,Dauphin County,Harrisburg,17113,"Dauphin Co. - 2 S. 2nd St.
P.O. Box 1295
Harrisburg, PA 17108-1295
(717) 780-6360"
PA,Dauphin County,Harrisburg,17129,"Dauphin Co. - 2 S. 2nd St.
P.O. Box 1295
Harrisburg, PA 17108-1295
(717) 780-6360"
PA,Franklin County,Chambersburg,17201,"340 N. 2nd St.
Chambersburg, PA 17201
(717) 261-3810"
PA,Franklin County,Chambersburg,17202,"340 N. 2nd St.
Chambersburg, PA 17201
(717) 261-3810"
PA,Bedford County,Artemas,17211,"200 S. Juliana Street
Bedford, PA 15522
(814) 623-4807"
PA,Fulton County,Big Cove Tannery,17212,"116 W. Market St., Ste 205
McConnellsburg, PA 17233
(717) 485-6864"
PA,Huntingdon County,Blairs Mills,17213,"223 Penn St. - Courthouse
Huntingdon, PA 16652
(814) 643-3091"
PA,Franklin County,Blue Ridge Summit,17214,"340 N. 2nd St.
Chambersburg, PA 17201
(717) 261-3810"
PA,Fulton County,Burnt Cabins,17215,"116 W. Market St., Ste 205
McConnellsburg, PA 17233
(717) 485-6864"
PA,Franklin County,Concord,17217,"340 N. 2nd St.
Chambersburg, PA 17201
(717) 261-3810"
PA,Franklin County,Doylesburg,17219,"340 N. 2nd St.
Chambersburg, PA 17201
(717) 261-3810"
PA,Franklin County,Dry Run,17220,"340 N. 2nd St.
Chambersburg, PA 17201
(717) 261-3810"
PA,Franklin County,Fannettsburg,17221,"340 N. 2nd St.
Chambersburg, PA 17201
(717) 261-3810"
PA,Franklin County,Fayetteville,17222,"340 N. 2nd St.
Chambersburg, PA 17201
(717) 261-3810"
PA,Fulton County,Fort Littleton,17223,"116 W. Market St., Ste 205
McConnellsburg, PA 17233
(717) 485-6864"
PA,Franklin County,Fort Loudon,17224,"340 N. 2nd St.
Chambersburg, PA 17201
(717) 261-3810"
PA,Franklin County,Greencastle,17225,"340 N. 2nd St.
Chambersburg, PA 17201
(717) 261-3810"
PA,Fulton County,Harrisonville,17228,"116 W. Market St., Ste 205
McConnellsburg, PA 17233
(717) 485-6864"
PA,Fulton County,Hustontown,17229,"116 W. Market St., Ste 205
McConnellsburg, PA 17233
(717) 485-6864"
PA,Franklin County,Lurgan,17232,"340 N. 2nd St.
Chambersburg, PA 17201
(717) 261-3810"
PA,Fulton County,Mc Connellsburg,17233,"116 W. Market St., Ste 205
McConnellsburg, PA 17233
(717) 485-6864"
PA,Franklin County,Mercersburg,17236,"340 N. 2nd St.
Chambersburg, PA 17201
(717) 261-3810"
PA,Franklin County,Mont Alto,17237,"340 N. 2nd St.
Chambersburg, PA 17201
(717) 261-3810"
PA,Fulton County,Needmore,17238,"116 W. Market St., Ste 205
McConnellsburg, PA 17233
(717) 485-6864"
PA,Huntingdon County,Neelyton,17239,"223 Penn St. - Courthouse
Huntingdon, PA 16652
(814) 643-3091"
PA,Cumberland County,Newburg,17240,"1601 Ritner Highway
Carlisle, PA 17013
(717) 240-6385"
PA,Cumberland County,Newville,17241,"1601 Ritner Highway
Carlisle, PA 17013
(717) 240-6385"
PA,Huntingdon County,Orbisonia,17243,"223 Penn St. - Courthouse
Huntingdon, PA 16652
(814) 643-3091"
PA,Franklin County,Orrstown,17244,"340 N. 2nd St.
Chambersburg, PA 17201
(717) 261-3810"
PA,Franklin County,Pleasant Hall,17246,"340 N. 2nd St.
Chambersburg, PA 17201
(717) 261-3810"
PA,Franklin County,Saint Thomas,17252,"340 N. 2nd St.
Chambersburg, PA 17201
(717) 261-3810"
PA,Huntingdon County,Shade Gap,17255,"223 Penn St. - Courthouse
Huntingdon, PA 16652
(814) 643-3091"
PA,Cumberland County,Shippensburg,17257,"1601 Ritner Highway
Carlisle, PA 17013
(717) 240-6385"
PA,Huntingdon County,Shirleysburg,17260,"223 Penn St. - Courthouse
Huntingdon, PA 16652
(814) 643-3091"
PA,Franklin County,Spring Run,17262,"340 N. 2nd St.
Chambersburg, PA 17201
(717) 261-3810"
PA,Huntingdon County,Three Springs,17264,"223 Penn St. - Courthouse
Huntingdon, PA 16652
(814) 643-3091"
PA,Franklin County,Upperstrasburg,17265,"340 N. 2nd St.
Chambersburg, PA 17201
(717) 261-3810"
PA,Cumberland County,Walnut Bottom,17266,"1601 Ritner Highway
Carlisle, PA 17013
(717) 240-6385"
PA,Fulton County,Warfordsburg,17267,"116 W. Market St., Ste 205
McConnellsburg, PA 17233
(717) 485-6864"
PA,Franklin County,Waynesboro,17268,"340 N. 2nd St.
Chambersburg, PA 17201
(717) 261-3810"
PA,Franklin County,Willow Hill,17271,"340 N. 2nd St.
Chambersburg, PA 17201
(717) 261-3810"
PA,Adams County,Abbottstown,17301,"117 Baltimore Street
Gettysburg, PA 17325-2313
(717) 337-9832"
PA,York County,Airville,17302,"28 E. Market St.
York, PA 17401
(717) 771-9604"
PA,Adams County,Aspers,17304,"117 Baltimore Street
Gettysburg, PA 17325-2313
(717) 337-9832"
PA,Adams County,Biglerville,17307,"117 Baltimore Street
Gettysburg, PA 17325-2313
(717) 337-9832"
PA,York County,Brogue,17309,"28 E. Market St.
York, PA 17401
(717) 771-9604"
PA,York County,Dallastown,17313,"28 E. Market St.
York, PA 17401
(717) 771-9604"
PA,York County,Delta,17314,"28 E. Market St.
York, PA 17401
(717) 771-9604"
PA,York County,Dover,17315,"28 E. Market St.
York, PA 17401
(717) 771-9604"
PA,Adams County,East Berlin,17316,"117 Baltimore Street
Gettysburg, PA 17325-2313
(717) 337-9832"
PA,York County,Etters,17319,"28 E. Market St.
York, PA 17401
(717) 771-9604"
PA,Adams County,Fairfield,17320,"117 Baltimore Street
Gettysburg, PA 17325-2313
(717) 337-9832"
PA,York County,Fawn Grove,17321,"28 E. Market St.
York, PA 17401
(717) 771-9604"
PA,York County,Felton,17322,"28 E. Market St.
York, PA 17401
(717) 771-9604"
PA,Cumberland County,Gardners,17324,"1601 Ritner Highway
Carlisle, PA 17013
(717) 240-6385"
PA,Adams County,Gettysburg,17325,"117 Baltimore Street
Gettysburg, PA 17325-2313
(717) 337-9832"
PA,York County,Glen Rock,17327,"28 E. Market St.
York, PA 17401
(717) 771-9604"
PA,York County,Glenville,17329,"28 E. Market St.
York, PA 17401
(717) 771-9604"
PA,York County,Hanover,17331,"28 E. Market St.
York, PA 17401
(717) 771-9604"
PA,York County,Lewisberry,17339,"28 E. Market St.
York, PA 17401
(717) 771-9604"
PA,Adams County,Littlestown,17340,"117 Baltimore Street
Gettysburg, PA 17325-2313
(717) 337-9832"
PA,Adams County,Mc Sherrystown,17344,"117 Baltimore Street
Gettysburg, PA 17325-2313
(717) 337-9832"
PA,York County,Manchester,17345,"28 E. Market St.
York, PA 17401
(717) 771-9604"
PA,York County,Mount Wolf,17347,"28 E. Market St.
York, PA 17401
(717) 771-9604"
PA,York County,New Freedom,17349,"28 E. Market St.
York, PA 17401
(717) 771-9604"
PA,Adams County,New Oxford,17350,"117 Baltimore Street
Gettysburg, PA 17325-2313
(717) 337-9832"
PA,York County,New Park,17352,"28 E. Market St.
York, PA 17401
(717) 771-9604"
PA,Adams County,Orrtanna,17353,"117 Baltimore Street
Gettysburg, PA 17325-2313
(717) 337-9832"
PA,York County,Porters Sideling,17354,"28 E. Market St.
York, PA 17401
(717) 771-9604"
PA,York County,Red Lion,17356,"28 E. Market St.
York, PA 17401
(717) 771-9604"
PA,York County,Seven Valleys,17360,"28 E. Market St.
York, PA 17401
(717) 771-9604"
PA,York County,Shrewsbury,17361,"28 E. Market St.
York, PA 17401
(717) 771-9604"
PA,York County,Spring Grove,17362,"28 E. Market St.
York, PA 17401
(717) 771-9604"
PA,York County,Stewartstown,17363,"28 E. Market St.
York, PA 17401
(717) 771-9604"
PA,York County,Thomasville,17364,"28 E. Market St.
York, PA 17401
(717) 771-9604"
PA,York County,Wellsville,17365,"28 E. Market St.
York, PA 17401
(717) 771-9604"
PA,York County,Windsor,17366,"28 E. Market St.
York, PA 17401
(717) 771-9604"
PA,York County,Wrightsville,17368,"28 E. Market St.
York, PA 17401
(717) 771-9604"
PA,York County,York Haven,17370,"28 E. Market St.
York, PA 17401
(717) 771-9604"
PA,Adams County,York Springs,17372,"117 Baltimore Street
Gettysburg, PA 17325-2313
(717) 337-9832"
PA,Adams County,Peach Glen,17375,"117 Baltimore Street
Gettysburg, PA 17325-2313
(717) 337-9832"
PA,York County,York,17401,"28 E. Market St.
York, PA 17401
(717) 771-9604"
PA,York County,York,17402,"28 E. Market St.
York, PA 17401
(717) 771-9604"
PA,York County,York,17403,"28 E. Market St.
York, PA 17401
(717) 771-9604"
PA,York County,York,17404,"28 E. Market St.
York, PA 17401
(717) 771-9604"
PA,York County,York,17406,"28 E. Market St.
York, PA 17401
(717) 771-9604"
PA,York County,York,17407,"28 E. Market St.
York, PA 17401
(717) 771-9604"
PA,York County,York,17408,"28 E. Market St.
York, PA 17401
(717) 771-9604"
PA,Lancaster County,Akron,17501,"150 N. Queen St., Ste 117
Lancaster, PA 17603
(717) 299-8293

"
PA,Lancaster County,Bainbridge,17502,"150 N. Queen St., Ste 117
Lancaster, PA 17603
(717) 299-8293

"
PA,Lancaster County,Bird In Hand,17505,"150 N. Queen St., Ste 117
Lancaster, PA 17603
(717) 299-8293

"
PA,Lancaster County,Christiana,17509,"150 N. Queen St., Ste 117
Lancaster, PA 17603
(717) 299-8293

"
PA,Lancaster County,Columbia,17512,"150 N. Queen St., Ste 117
Lancaster, PA 17603
(717) 299-8293

"
PA,Lancaster County,Conestoga,17516,"150 N. Queen St., Ste 117
Lancaster, PA 17603
(717) 299-8293

"
PA,Lancaster County,Denver,17517,"150 N. Queen St., Ste 117
Lancaster, PA 17603
(717) 299-8293

"
PA,Lancaster County,Drumore,17518,"150 N. Queen St., Ste 117
Lancaster, PA 17603
(717) 299-8293

"
PA,Lancaster County,East Earl,17519,"150 N. Queen St., Ste 117
Lancaster, PA 17603
(717) 299-8293

"
PA,Lancaster County,East Petersburg,17520,"150 N. Queen St., Ste 117
Lancaster, PA 17603
(717) 299-8293

"
PA,Lancaster County,Ephrata,17522,"150 N. Queen St., Ste 117
Lancaster, PA 17603
(717) 299-8293

"
PA,Lancaster County,Gap,17527,"150 N. Queen St., Ste 117
Lancaster, PA 17603
(717) 299-8293

"
PA,Lancaster County,Gordonville,17529,"150 N. Queen St., Ste 117
Lancaster, PA 17603
(717) 299-8293

"
PA,Lancaster County,Holtwood,17532,"150 N. Queen St., Ste 117
Lancaster, PA 17603
(717) 299-8293

"
PA,Lancaster County,Kinzers,17535,"150 N. Queen St., Ste 117
Lancaster, PA 17603
(717) 299-8293

"
PA,Lancaster County,Kirkwood,17536,"150 N. Queen St., Ste 117
Lancaster, PA 17603
(717) 299-8293

"
PA,Lancaster County,Landisville,17538,"150 N. Queen St., Ste 117
Lancaster, PA 17603
(717) 299-8293

"
PA,Lancaster County,Leola,17540,"150 N. Queen St., Ste 117
Lancaster, PA 17603
(717) 299-8293

"
PA,Lancaster County,Lititz,17543,"150 N. Queen St., Ste 117
Lancaster, PA 17603
(717) 299-8293

"
PA,Lancaster County,Manheim,17545,"150 N. Queen St., Ste 117
Lancaster, PA 17603
(717) 299-8293

"
PA,Lancaster County,Marietta,17547,"150 N. Queen St., Ste 117
Lancaster, PA 17603
(717) 299-8293

"
PA,Lancaster County,Millersville,17551,"150 N. Queen St., Ste 117
Lancaster, PA 17603
(717) 299-8293

"
PA,Lancaster County,Mount Joy,17552,"150 N. Queen St., Ste 117
Lancaster, PA 17603
(717) 299-8293

"
PA,Lancaster County,Mountville,17554,"150 N. Queen St., Ste 117
Lancaster, PA 17603
(717) 299-8293

"
PA,Lancaster County,Narvon,17555,"150 N. Queen St., Ste 117
Lancaster, PA 17603
(717) 299-8293

"
PA,Lancaster County,New Holland,17557,"150 N. Queen St., Ste 117
Lancaster, PA 17603
(717) 299-8293

"
PA,Lancaster County,New Providence,17560,"150 N. Queen St., Ste 117
Lancaster, PA 17603
(717) 299-8293

"
PA,Lancaster County,Paradise,17562,"150 N. Queen St., Ste 117
Lancaster, PA 17603
(717) 299-8293

"
PA,Lancaster County,Peach Bottom,17563,"150 N. Queen St., Ste 117
Lancaster, PA 17603
(717) 299-8293

"
PA,Lancaster County,Pequea,17565,"150 N. Queen St., Ste 117
Lancaster, PA 17603
(717) 299-8293

"
PA,Lancaster County,Quarryville,17566,"150 N. Queen St., Ste 117
Lancaster, PA 17603
(717) 299-8293

"
PA,Lancaster County,Reinholds,17569,"150 N. Queen St., Ste 117
Lancaster, PA 17603
(717) 299-8293

"
PA,Lancaster County,Ronks,17572,"150 N. Queen St., Ste 117
Lancaster, PA 17603
(717) 299-8293

"
PA,Lancaster County,Smoketown,17576,"150 N. Queen St., Ste 117
Lancaster, PA 17603
(717) 299-8293

"
PA,Lancaster County,Stevens,17578,"150 N. Queen St., Ste 117
Lancaster, PA 17603
(717) 299-8293

"
PA,Lancaster County,Strasburg,17579,"150 N. Queen St., Ste 117
Lancaster, PA 17603
(717) 299-8293

"
PA,Lancaster County,Terre Hill,17581,"150 N. Queen St., Ste 117
Lancaster, PA 17603
(717) 299-8293

"
PA,Lancaster County,Washington Boro,17582,"150 N. Queen St., Ste 117
Lancaster, PA 17603
(717) 299-8293

"
PA,Lancaster County,Willow Street,17584,"150 N. Queen St., Ste 117
Lancaster, PA 17603
(717) 299-8293

"
PA,Lancaster County,Lancaster,17601,"150 N. Queen St., Ste 117
Lancaster, PA 17603
(717) 299-8293

"
PA,Lancaster County,Lancaster,17602,"150 N. Queen St., Ste 117
Lancaster, PA 17603
(717) 299-8293

"
PA,Lancaster County,Lancaster,17603,"150 N. Queen St., Ste 117
Lancaster, PA 17603
(717) 299-8293

"
PA,Lancaster County,Lancaster,17611,"150 N. Queen St., Ste 117
Lancaster, PA 17603
(717) 299-8293

"
PA,Lycoming County,Williamsport,17701,"48 W. Third St.
Williamsport, PA 17701
(570) 327-2267"
PA,Lycoming County,Williamsport,17702,"48 W. Third St.
Williamsport, PA 17701
(570) 327-2267"
PA,Lycoming County,Cammal,17723,"48 W. Third St.
Williamsport, PA 17701
(570) 327-2267"
PA,Bradford County,Canton,17724,"6 Court St., Ste. 2
Towanda, PA 18848
(570) 265-1717"
PA,Lycoming County,Cedar Run,17727,"48 W. Third St.
Williamsport, PA 17701
(570) 327-2267"
PA,Lycoming County,Cogan Station,17728,"48 W. Third St.
Williamsport, PA 17701
(570) 327-2267"
PA,Clinton County,Cross Fork,17729,"2 Piper Way, Suite 309
Lock Haven, PA 17745-0928
(570) 893-4019"
PA,Lycoming County,Hughesville,17737,"48 W. Third St.
Williamsport, PA 17701
(570) 327-2267"
PA,Clinton County,North Bend,17738,"2 Piper Way, Suite 309
Lock Haven, PA 17745-0928
(570) 893-4019"
PA,Lycoming County,Jersey Shore,17740,"48 W. Third St.
Williamsport, PA 17701
(570) 327-2267"
PA,Lycoming County,Lairdsville,17742,"48 W. Third St.
Williamsport, PA 17701
(570) 327-2267"
PA,Lycoming County,Linden,17744,"48 W. Third St.
Williamsport, PA 17701
(570) 327-2267"
PA,Clinton County,Lock Haven,17745,"2 Piper Way, Suite 309
Lock Haven, PA 17745-0928
(570) 893-4019"
PA,Clinton County,Loganton,17747,"2 Piper Way, Suite 309
Lock Haven, PA 17745-0928
(570) 893-4019"
PA,Clinton County,Mill Hall,17751,"2 Piper Way, Suite 309
Lock Haven, PA 17745-0928
(570) 893-4019"
PA,Lycoming County,Montgomery,17752,"48 W. Third St.
Williamsport, PA 17701
(570) 327-2267"
PA,Lycoming County,Montoursville,17754,"48 W. Third St.
Williamsport, PA 17701
(570) 327-2267"
PA,Lycoming County,Muncy,17756,"48 W. Third St.
Williamsport, PA 17701
(570) 327-2267"
PA,Sullivan County,Muncy Valley,17758,"P.O. Box 157
Main & Muncy Streets
Laporte, PA 18626-0157
(570) 946-5201"
PA,Clinton County,Renovo,17764,"2 Piper Way, Suite 309
Lock Haven, PA 17745-0928
(570) 893-4019"
PA,Tioga County,Roaring Branch,17765,"118 Main St.
Wellsboro, PA 16901
(570) 723-8230

"
PA,Sullivan County,Shunk,17768,"P.O. Box 157
Main & Muncy Streets
Laporte, PA 18626-0157
(570) 946-5201"
PA,Lycoming County,Trout Run,17771,"48 W. Third St.
Williamsport, PA 17701
(570) 327-2267"
PA,Northumberland County,Turbotville,17772,"320 North Second Street,Suite 1
Sunbury, PA 17801
(570) 988-4209"
PA,Lycoming County,Unityville,17774,"48 W. Third St.
Williamsport, PA 17701
(570) 327-2267"
PA,Lycoming County,Waterville,17776,"48 W. Third St.
Williamsport, PA 17701
(570) 327-2267"
PA,Northumberland County,Watsontown,17777,"320 North Second Street,Suite 1
Sunbury, PA 17801
(570) 988-4209"
PA,Clinton County,Westport,17778,"2 Piper Way, Suite 309
Lock Haven, PA 17745-0928
(570) 893-4019"
PA,Northumberland County,Sunbury,17801,"320 North Second Street,Suite 1
Sunbury, PA 17801
(570) 988-4209"
PA,Union County,Allenwood,17810,"155 North 15th St.
Lewisburg, PA 17837-8822
(570) 524-8603"
PA,Snyder County,Beaver Springs,17812,"9 West Market St., P.O. Box 217
Middleburg, PA 17842
(570) 837-4286"
PA,Snyder County,Beavertown,17813,"9 West Market St., P.O. Box 217
Middleburg, PA 17842
(570) 837-4286"
PA,Columbia County,Benton,17814,"11 W. Main Street
Bloomsburg, PA 17815-0380
(570) 389-5640"
PA,Columbia County,Bloomsburg,17815,"11 W. Main Street
Bloomsburg, PA 17815-0380
(570) 389-5640"
PA,Columbia County,Catawissa,17820,"11 W. Main Street
Bloomsburg, PA 17815-0380
(570) 389-5640"
PA,Montour County,Danville,17821,"253 Mill Street
Danville, PA 17821
(570) 271-3000"
PA,Northumberland County,Dornsife,17823,"320 North Second Street,Suite 1
Sunbury, PA 17801
(570) 988-4209"
PA,Northumberland County,Elysburg,17824,"320 North Second Street,Suite 1
Sunbury, PA 17801
(570) 988-4209"
PA,Snyder County,Freeburg,17827,"9 West Market St., P.O. Box 217
Middleburg, PA 17842
(570) 837-4286"
PA,Northumberland County,Herndon,17830,"320 North Second Street,Suite 1
Sunbury, PA 17801
(570) 988-4209"
PA,Northumberland County,Kulpmont,17834,"320 North Second Street,Suite 1
Sunbury, PA 17801
(570) 988-4209"
PA,Northumberland County,Leck Kill,17836,"320 North Second Street,Suite 1
Sunbury, PA 17801
(570) 988-4209"
PA,Union County,Lewisburg,17837,"155 North 15th St.
Lewisburg, PA 17837-8822
(570) 524-8603"
PA,Mifflin County,Mc Clure,17841,"20 N. Wayne St.
Lewistown, PA 17044
(717) 248-6571"
PA,Snyder County,Middleburg,17842,"9 West Market St., P.O. Box 217
Middleburg, PA 17842
(570) 837-4286"
PA,Snyder County,Beaver Springs,17843,"9 West Market St., P.O. Box 217
Middleburg, PA 17842
(570) 837-4286"
PA,Union County,Mifflinburg,17844,"155 North 15th St.
Lewisburg, PA 17837-8822
(570) 524-8603"
PA,Union County,Millmont,17845,"155 North 15th St.
Lewisburg, PA 17837-8822
(570) 524-8603"
PA,Columbia County,Millville,17846,"11 W. Main Street
Bloomsburg, PA 17815-0380
(570) 389-5640"
PA,Northumberland County,Milton,17847,"320 North Second Street,Suite 1
Sunbury, PA 17801
(570) 988-4209"
PA,Northumberland County,Mount Carmel,17851,"320 North Second Street,Suite 1
Sunbury, PA 17801
(570) 988-4209"
PA,Snyder County,Mount Pleasant Mills,17853,"9 West Market St., P.O. Box 217
Middleburg, PA 17842
(570) 837-4286"
PA,Union County,New Berlin,17855,"155 North 15th St.
Lewisburg, PA 17837-8822
(570) 524-8603"
PA,Union County,New Columbia,17856,"155 North 15th St.
Lewisburg, PA 17837-8822
(570) 524-8603"
PA,Northumberland County,Northumberland,17857,"320 North Second Street,Suite 1
Sunbury, PA 17801
(570) 988-4209"
PA,Columbia County,Orangeville,17859,"11 W. Main Street
Bloomsburg, PA 17815-0380
(570) 389-5640"
PA,Northumberland County,Paxinos,17860,"320 North Second Street,Suite 1
Sunbury, PA 17801
(570) 988-4209"
PA,Snyder County,Port Trevorton,17864,"9 West Market St., P.O. Box 217
Middleburg, PA 17842
(570) 837-4286"
PA,Northumberland County,Coal Township,17866,"320 North Second Street,Suite 1
Sunbury, PA 17801
(570) 988-4209"
PA,Northumberland County,Rebuck,17867,"320 North Second Street,Suite 1
Sunbury, PA 17801
(570) 988-4209"
PA,Snyder County,Selinsgrove,17870,"9 West Market St., P.O. Box 217
Middleburg, PA 17842
(570) 837-4286"
PA,Northumberland County,Shamokin,17872,"320 North Second Street,Suite 1
Sunbury, PA 17801
(570) 988-4209"
PA,Snyder County,Shamokin Dam,17876,"9 West Market St., P.O. Box 217
Middleburg, PA 17842
(570) 837-4286"
PA,Columbia County,Stillwater,17878,"11 W. Main Street
Bloomsburg, PA 17815-0380
(570) 389-5640"
PA,Northumberland County,Trevorton,17881,"320 North Second Street,Suite 1
Sunbury, PA 17801
(570) 988-4209"
PA,Union County,West Milton,17886,"155 North 15th St.
Lewisburg, PA 17837-8822
(570) 524-8603"
PA,Columbia County,Wilburton,17888,"11 W. Main Street
Bloomsburg, PA 17815-0380
(570) 389-5640"
PA,Union County,Winfield,17889,"155 North 15th St.
Lewisburg, PA 17837-8822
(570) 524-8603"
PA,Schuylkill County,Pottsville,17901,"420 N. Centre St.
Pottsville, PA 17901
(570) 628-1467

"
PA,Schuylkill County,Ashland,17921,"420 N. Centre St.
Pottsville, PA 17901
(570) 628-1467

"
PA,Schuylkill County,Auburn,17922,"420 N. Centre St.
Pottsville, PA 17901
(570) 628-1467

"
PA,Schuylkill County,Cressona,17929,"420 N. Centre St.
Pottsville, PA 17901
(570) 628-1467

"
PA,Schuylkill County,Frackville,17931,"420 N. Centre St.
Pottsville, PA 17901
(570) 628-1467

"
PA,Schuylkill County,Gilberton,17934,"420 N. Centre St.
Pottsville, PA 17901
(570) 628-1467

"
PA,Schuylkill County,Girardville,17935,"420 N. Centre St.
Pottsville, PA 17901
(570) 628-1467

"
PA,Schuylkill County,Hegins,17938,"420 N. Centre St.
Pottsville, PA 17901
(570) 628-1467

"
PA,Schuylkill County,Klingerstown,17941,"420 N. Centre St.
Pottsville, PA 17901
(570) 628-1467

"
PA,Schuylkill County,Mahanoy City,17948,"420 N. Centre St.
Pottsville, PA 17901
(570) 628-1467

"
PA,Schuylkill County,Minersville,17954,"420 N. Centre St.
Pottsville, PA 17901
(570) 628-1467

"
PA,Schuylkill County,Muir,17957,"420 N. Centre St.
Pottsville, PA 17901
(570) 628-1467

"
PA,Schuylkill County,New Philadelphia,17959,"420 N. Centre St.
Pottsville, PA 17901
(570) 628-1467

"
PA,Schuylkill County,New Ringgold,17960,"420 N. Centre St.
Pottsville, PA 17901
(570) 628-1467

"
PA,Schuylkill County,Orwigsburg,17961,"420 N. Centre St.
Pottsville, PA 17901
(570) 628-1467

"
PA,Schuylkill County,Pine Grove,17963,"420 N. Centre St.
Pottsville, PA 17901
(570) 628-1467

"
PA,Schuylkill County,Pitman,17964,"420 N. Centre St.
Pottsville, PA 17901
(570) 628-1467

"
PA,Schuylkill County,Port Carbon,17965,"420 N. Centre St.
Pottsville, PA 17901
(570) 628-1467

"
PA,Schuylkill County,Ringtown,17967,"420 N. Centre St.
Pottsville, PA 17901
(570) 628-1467

"
PA,Schuylkill County,Sacramento,17968,"420 N. Centre St.
Pottsville, PA 17901
(570) 628-1467

"
PA,Schuylkill County,Saint Clair,17970,"420 N. Centre St.
Pottsville, PA 17901
(570) 628-1467

"
PA,Schuylkill County,Schuylkill Haven,17972,"420 N. Centre St.
Pottsville, PA 17901
(570) 628-1467

"
PA,Schuylkill County,Shenandoah,17976,"420 N. Centre St.
Pottsville, PA 17901
(570) 628-1467

"
PA,Schuylkill County,Spring Glen,17978,"420 N. Centre St.
Pottsville, PA 17901
(570) 628-1467

"
PA,Schuylkill County,Tower City,17980,"420 N. Centre St.
Pottsville, PA 17901
(570) 628-1467

"
PA,Schuylkill County,Tremont,17981,"420 N. Centre St.
Pottsville, PA 17901
(570) 628-1467

"
PA,Schuylkill County,Valley View,17983,"420 N. Centre St.
Pottsville, PA 17901
(570) 628-1467

"
PA,Schuylkill County,Zion Grove,17985,"420 N. Centre St.
Pottsville, PA 17901
(570) 628-1467

"
PA,Lehigh County,Alburtis,18011,"17 S. 7th St.
Allentown, PA 18101
(610) 782-3194"
PA,Northampton County,Bangor,18013,"669 Washington St., Room 1211
Easton, PA 18042-4101
(610) 829-6260"
PA,Northampton County,Bath,18014,"669 Washington St., Room 1211
Easton, PA 18042-4101
(610) 829-6260"
PA,Northampton County,Bethlehem,18015,"669 Washington St., Room 1211
Easton, PA 18042-4101
(610) 829-6260"
PA,Lehigh County,Bethlehem,18016,"17 S. 7th St.
Allentown, PA 18101
(610) 782-3194"
PA,Northampton County,Bethlehem,18017,"669 Washington St., Room 1211
Easton, PA 18042-4101
(610) 829-6260"
PA,Lehigh County,Bethlehem,18018,"17 S. 7th St.
Allentown, PA 18101
(610) 782-3194"
PA,Northampton County,Bethlehem,18020,"669 Washington St., Room 1211
Easton, PA 18042-4101
(610) 829-6260"
PA,Lehigh County,Breinigsville,18031,"17 S. 7th St.
Allentown, PA 18101
(610) 782-3194"
PA,Lehigh County,Catasauqua,18032,"17 S. 7th St.
Allentown, PA 18101
(610) 782-3194"
PA,Lehigh County,Center Valley,18034,"17 S. 7th St.
Allentown, PA 18101
(610) 782-3194"
PA,Northampton County,Cherryville,18035,"669 Washington St., Room 1211
Easton, PA 18042-4101
(610) 829-6260"
PA,Lehigh County,Coopersburg,18036,"17 S. 7th St.
Allentown, PA 18101
(610) 782-3194"
PA,Lehigh County,Coplay,18037,"17 S. 7th St.
Allentown, PA 18101
(610) 782-3194"
PA,Northampton County,Danielsville,18038,"669 Washington St., Room 1211
Easton, PA 18042-4101
(610) 829-6260"
PA,Northampton County,Easton,18040,"669 Washington St., Room 1211
Easton, PA 18042-4101
(610) 829-6260"
PA,Montgomery County,East Greenville,18041,"P.O. Box 311
Norristown, PA 19404-0311
(610) 278-3275"
PA,Northampton County,Easton,18042,"669 Washington St., Room 1211
Easton, PA 18042-4101
(610) 829-6260"
PA,Northampton County,Easton,18045,"669 Washington St., Room 1211
Easton, PA 18042-4101
(610) 829-6260"
PA,Lehigh County,Emmaus,18049,"17 S. 7th St.
Allentown, PA 18101
(610) 782-3194"
PA,Lehigh County,Fogelsville,18051,"17 S. 7th St.
Allentown, PA 18101
(610) 782-3194"
PA,Lehigh County,Whitehall,18052,"17 S. 7th St.
Allentown, PA 18101
(610) 782-3194"
PA,Lehigh County,Germansville,18053,"17 S. 7th St.
Allentown, PA 18101
(610) 782-3194"
PA,Montgomery County,Green Lane,18054,"P.O. Box 311
Norristown, PA 19404-0311
(610) 278-3275"
PA,Northampton County,Hellertown,18055,"669 Washington St., Room 1211
Easton, PA 18042-4101
(610) 829-6260"
PA,Berks County,Hereford,18056,"633 Court St., 1st Floor
Reading, PA 19601
(610) 478-6490"
PA,Monroe County,Kunkletown,18058,"One Quaker Plaza, Rm. 105
Stroudsburg, PA 18360
(570) 517-3165"
PA,Lehigh County,Laurys Station,18059,"17 S. 7th St.
Allentown, PA 18101
(610) 782-3194"
PA,Lehigh County,Macungie,18062,"17 S. 7th St.
Allentown, PA 18101
(610) 782-3194"
PA,Northampton County,Nazareth,18064,"669 Washington St., Room 1211
Easton, PA 18042-4101
(610) 829-6260"
PA,Lehigh County,New Tripoli,18066,"17 S. 7th St.
Allentown, PA 18101
(610) 782-3194"
PA,Northampton County,Northampton,18067,"669 Washington St., Room 1211
Easton, PA 18042-4101
(610) 829-6260"
PA,Lehigh County,Orefield,18069,"17 S. 7th St.
Allentown, PA 18101
(610) 782-3194"
PA,Montgomery County,Palm,18070,"P.O. Box 311
Norristown, PA 19404-0311
(610) 278-3275"
PA,Carbon County,Palmerton,18071,"76 Susquehanna St., PO Box 170
Jim Thorpe, PA 18229
(570) 325-4801"
PA,Northampton County,Pen Argyl,18072,"669 Washington St., Room 1211
Easton, PA 18042-4101
(610) 829-6260"
PA,Montgomery County,Pennsburg,18073,"P.O. Box 311
Norristown, PA 19404-0311
(610) 278-3275"
PA,Montgomery County,Perkiomenville,18074,"P.O. Box 311
Norristown, PA 19404-0311
(610) 278-3275"
PA,Montgomery County,Red Hill,18076,"P.O. Box 311
Norristown, PA 19404-0311
(610) 278-3275"
PA,Bucks County,Riegelsville,18077,"55 E. Court St.
Doylestown, PA 18901
(215) 348-6154"
PA,Lehigh County,Schnecksville,18078,"17 S. 7th St.
Allentown, PA 18101
(610) 782-3194"
PA,Lehigh County,Slatington,18080,"17 S. 7th St.
Allentown, PA 18101
(610) 782-3194"
PA,Lehigh County,Trexlertown,18087,"17 S. 7th St.
Allentown, PA 18101
(610) 782-3194"
PA,Northampton County,Walnutport,18088,"669 Washington St., Room 1211
Easton, PA 18042-4101
(610) 829-6260"
PA,Northampton County,Wind Gap,18091,"669 Washington St., Room 1211
Easton, PA 18042-4101
(610) 829-6260"
PA,Lehigh County,Zionsville,18092,"17 S. 7th St.
Allentown, PA 18101
(610) 782-3194"
PA,Lehigh County,Allentown,18101,"17 S. 7th St.
Allentown, PA 18101
(610) 782-3194"
PA,Lehigh County,Allentown,18102,"17 S. 7th St.
Allentown, PA 18101
(610) 782-3194"
PA,Lehigh County,Allentown,18103,"17 S. 7th St.
Allentown, PA 18101
(610) 782-3194"
PA,Lehigh County,Allentown,18104,"17 S. 7th St.
Allentown, PA 18101
(610) 782-3194"
PA,Lehigh County,Allentown,18106,"17 S. 7th St.
Allentown, PA 18101
(610) 782-3194"
PA,Lehigh County,Allentown,18109,"17 S. 7th St.
Allentown, PA 18101
(610) 782-3194"
PA,Lehigh County,Allentown,18195,"17 S. 7th St.
Allentown, PA 18101
(610) 782-3194"
PA,Luzerne County,Hazleton,18201,"20 N. Pennsylvania Ave.
Ste. 207
Wilkes-Barre, PA 18701-3505
(570) 825-1715"
PA,Luzerne County,Hazleton,18202,"20 N. Pennsylvania Ave.
Ste. 207
Wilkes-Barre, PA 18701-3505
(570) 825-1715"
PA,Carbon County,Albrightsville,18210,"76 Susquehanna St., PO Box 170
Jim Thorpe, PA 18229
(570) 325-4801"
PA,Schuylkill County,Andreas,18211,"420 N. Centre St.
Pottsville, PA 17901
(570) 628-1467

"
PA,Schuylkill County,Barnesville,18214,"420 N. Centre St.
Pottsville, PA 17901
(570) 628-1467

"
PA,Carbon County,Beaver Meadows,18216,"76 Susquehanna St., PO Box 170
Jim Thorpe, PA 18229
(570) 325-4801"
PA,Schuylkill County,Coaldale,18218,"420 N. Centre St.
Pottsville, PA 17901
(570) 628-1467

"
PA,Luzerne County,Drums,18222,"20 N. Pennsylvania Ave.
Ste. 207
Wilkes-Barre, PA 18701-3505
(570) 825-1715"
PA,Luzerne County,Freeland,18224,"20 N. Pennsylvania Ave.
Ste. 207
Wilkes-Barre, PA 18701-3505
(570) 825-1715"
PA,Carbon County,Jim Thorpe,18229,"76 Susquehanna St., PO Box 170
Jim Thorpe, PA 18229
(570) 325-4801"
PA,Carbon County,Lansford,18232,"76 Susquehanna St., PO Box 170
Jim Thorpe, PA 18229
(570) 325-4801"
PA,Carbon County,Lehighton,18235,"76 Susquehanna St., PO Box 170
Jim Thorpe, PA 18229
(570) 325-4801"
PA,Schuylkill County,Mcadoo,18237,"420 N. Centre St.
Pottsville, PA 17901
(570) 628-1467

"
PA,Carbon County,Nesquehoning,18240,"76 Susquehanna St., PO Box 170
Jim Thorpe, PA 18229
(570) 325-4801"
PA,Schuylkill County,Nuremberg,18241,"420 N. Centre St.
Pottsville, PA 17901
(570) 628-1467

"
PA,Luzerne County,Sugarloaf,18249,"20 N. Pennsylvania Ave.
Ste. 207
Wilkes-Barre, PA 18701-3505
(570) 825-1715"
PA,Carbon County,Summit Hill,18250,"76 Susquehanna St., PO Box 170
Jim Thorpe, PA 18229
(570) 325-4801"
PA,Schuylkill County,Tamaqua,18252,"420 N. Centre St.
Pottsville, PA 17901
(570) 628-1467

"
PA,Carbon County,Weatherly,18255,"76 Susquehanna St., PO Box 170
Jim Thorpe, PA 18229
(570) 325-4801"
PA,Monroe County,East Stroudsburg,18301,"One Quaker Plaza, Rm. 105
Stroudsburg, PA 18360
(570) 517-3165"
PA,Monroe County,East Stroudsburg,18302,"One Quaker Plaza, Rm. 105
Stroudsburg, PA 18360
(570) 517-3165"
PA,Monroe County,Bartonsville,18321,"One Quaker Plaza, Rm. 105
Stroudsburg, PA 18360
(570) 517-3165"
PA,Monroe County,Brodheadsville,18322,"One Quaker Plaza, Rm. 105
Stroudsburg, PA 18360
(570) 517-3165"
PA,Pike County,Bushkill,18324,"506 Broad St.
Pike County Administration Building
Milford, PA 18337-1535
(570) 296-3426"
PA,Monroe County,Canadensis,18325,"One Quaker Plaza, Rm. 105
Stroudsburg, PA 18360
(570) 517-3165"
PA,Monroe County,Cresco,18326,"One Quaker Plaza, Rm. 105
Stroudsburg, PA 18360
(570) 517-3165"
PA,Pike County,Dingmans Ferry,18328,"506 Broad St.
Pike County Administration Building
Milford, PA 18337-1535
(570) 296-3426"
PA,Monroe County,Effort,18330,"One Quaker Plaza, Rm. 105
Stroudsburg, PA 18360
(570) 517-3165"
PA,Monroe County,Gilbert,18331,"One Quaker Plaza, Rm. 105
Stroudsburg, PA 18360
(570) 517-3165"
PA,Monroe County,Henryville,18332,"One Quaker Plaza, Rm. 105
Stroudsburg, PA 18360
(570) 517-3165"
PA,Monroe County,Kresgeville,18333,"One Quaker Plaza, Rm. 105
Stroudsburg, PA 18360
(570) 517-3165"
PA,Monroe County,Long Pond,18334,"One Quaker Plaza, Rm. 105
Stroudsburg, PA 18360
(570) 517-3165"
PA,Pike County,Matamoras,18336,"506 Broad St.
Pike County Administration Building
Milford, PA 18337-1535
(570) 296-3426"
PA,Pike County,Milford,18337,"506 Broad St.
Pike County Administration Building
Milford, PA 18337-1535
(570) 296-3426"
PA,Northampton County,Mount Bethel,18343,"669 Washington St., Room 1211
Easton, PA 18042-4101
(610) 829-6260"
PA,Monroe County,Mount Pocono,18344,"One Quaker Plaza, Rm. 105
Stroudsburg, PA 18360
(570) 517-3165"
PA,Monroe County,Pocono Summit,18346,"One Quaker Plaza, Rm. 105
Stroudsburg, PA 18360
(570) 517-3165"
PA,Monroe County,Pocono Lake,18347,"One Quaker Plaza, Rm. 105
Stroudsburg, PA 18360
(570) 517-3165"
PA,Monroe County,Pocono Pines,18350,"One Quaker Plaza, Rm. 105
Stroudsburg, PA 18360
(570) 517-3165"
PA,Monroe County,Reeders,18352,"One Quaker Plaza, Rm. 105
Stroudsburg, PA 18360
(570) 517-3165"
PA,Monroe County,Saylorsburg,18353,"One Quaker Plaza, Rm. 105
Stroudsburg, PA 18360
(570) 517-3165"
PA,Monroe County,Sciota,18354,"One Quaker Plaza, Rm. 105
Stroudsburg, PA 18360
(570) 517-3165"
PA,Monroe County,Scotrun,18355,"One Quaker Plaza, Rm. 105
Stroudsburg, PA 18360
(570) 517-3165"
PA,Monroe County,Stroudsburg,18360,"One Quaker Plaza, Rm. 105
Stroudsburg, PA 18360
(570) 517-3165"
PA,Monroe County,Swiftwater,18370,"One Quaker Plaza, Rm. 105
Stroudsburg, PA 18360
(570) 517-3165"
PA,Pike County,Tamiment,18371,"506 Broad St.
Pike County Administration Building
Milford, PA 18337-1535
(570) 296-3426"
PA,Monroe County,Tannersville,18372,"One Quaker Plaza, Rm. 105
Stroudsburg, PA 18360
(570) 517-3165"
PA,Lackawanna County,Archbald,18403,"123 Wyoming Ave., 2nd Floor
Scranton, PA 18503
(570) 963-6737"
PA,Wayne County,Beach Lake,18405,"925 Court St.
Honesdale, PA 18431
(570) 253-5978"
PA,Lackawanna County,Carbondale,18407,"123 Wyoming Ave., 2nd Floor
Scranton, PA 18503
(570) 963-6737"
PA,Lackawanna County,Clarks Summit,18411,"123 Wyoming Ave., 2nd Floor
Scranton, PA 18503
(570) 963-6737"
PA,Lackawanna County,Dalton,18414,"123 Wyoming Ave., 2nd Floor
Scranton, PA 18503
(570) 963-6737"
PA,Wayne County,Damascus,18415,"925 Court St.
Honesdale, PA 18431
(570) 253-5978"
PA,Wayne County,Equinunk,18417,"925 Court St.
Honesdale, PA 18431
(570) 253-5978"
PA,Wyoming County,Factoryville,18419,"1 Courthouse Square
Tunkhannock, PA 18657
(570) 996-2226"
PA,Susquehanna County,Forest City,18421,"P.O. Box 218
31 Lake Ave.
Montrose, PA 18801
(570) 278-4600 x 4090"
PA,Lackawanna County,Gouldsboro,18424,"123 Wyoming Ave., 2nd Floor
Scranton, PA 18503
(570) 963-6737"
PA,Pike County,Greeley,18425,"506 Broad St.
Pike County Administration Building
Milford, PA 18337-1535
(570) 296-3426"
PA,Pike County,Greentown,18426,"506 Broad St.
Pike County Administration Building
Milford, PA 18337-1535
(570) 296-3426"
PA,Wayne County,Hamlin,18427,"925 Court St.
Honesdale, PA 18431
(570) 253-5978"
PA,Pike County,Hawley,18428,"506 Broad St.
Pike County Administration Building
Milford, PA 18337-1535
(570) 296-3426"
PA,Susquehanna County,Herrick Center,18430,"P.O. Box 218
31 Lake Ave.
Montrose, PA 18801
(570) 278-4600 x 4090"
PA,Wayne County,Honesdale,18431,"925 Court St.
Honesdale, PA 18431
(570) 253-5978"
PA,Lackawanna County,Jermyn,18433,"123 Wyoming Ave., 2nd Floor
Scranton, PA 18503
(570) 963-6737"
PA,Lackawanna County,Jessup,18434,"123 Wyoming Ave., 2nd Floor
Scranton, PA 18503
(570) 963-6737"
PA,Pike County,Lackawaxen,18435,"506 Broad St.
Pike County Administration Building
Milford, PA 18337-1535
(570) 296-3426"
PA,Wayne County,Lake Ariel,18436,"925 Court St.
Honesdale, PA 18431
(570) 253-5978"
PA,Wayne County,Lake Como,18437,"925 Court St.
Honesdale, PA 18431
(570) 253-5978"
PA,Wayne County,Lakeville,18438,"925 Court St.
Honesdale, PA 18431
(570) 253-5978"
PA,Wayne County,Lakewood,18439,"925 Court St.
Honesdale, PA 18431
(570) 253-5978"
PA,Susquehanna County,Lenoxville,18441,"P.O. Box 218
31 Lake Ave.
Montrose, PA 18801
(570) 278-4600 x 4090"
PA,Wayne County,Milanville,18443,"925 Court St.
Honesdale, PA 18431
(570) 253-5978"
PA,Lackawanna County,Moscow,18444,"123 Wyoming Ave., 2nd Floor
Scranton, PA 18503
(570) 963-6737"
PA,Wayne County,Newfoundland,18445,"925 Court St.
Honesdale, PA 18431
(570) 253-5978"
PA,Wyoming County,Nicholson,18446,"1 Courthouse Square
Tunkhannock, PA 18657
(570) 996-2226"
PA,Lackawanna County,Olyphant,18447,"123 Wyoming Ave., 2nd Floor
Scranton, PA 18503
(570) 963-6737"
PA,Pike County,Paupack,18451,"506 Broad St.
Pike County Administration Building
Milford, PA 18337-1535
(570) 296-3426"
PA,Lackawanna County,Peckville,18452,"123 Wyoming Ave., 2nd Floor
Scranton, PA 18503
(570) 963-6737"
PA,Wayne County,Pleasant Mount,18453,"925 Court St.
Honesdale, PA 18431
(570) 253-5978"
PA,Wayne County,Preston Park,18455,"925 Court St.
Honesdale, PA 18431
(570) 253-5978"
PA,Wayne County,Prompton,18456,"925 Court St.
Honesdale, PA 18431
(570) 253-5978"
PA,Pike County,Shohola,18458,"506 Broad St.
Pike County Administration Building
Milford, PA 18337-1535
(570) 296-3426"
PA,Wayne County,South Sterling,18460,"925 Court St.
Honesdale, PA 18431
(570) 253-5978"
PA,Wayne County,Starlight,18461,"925 Court St.
Honesdale, PA 18431
(570) 253-5978"
PA,Wayne County,Starrucca,18462,"925 Court St.
Honesdale, PA 18431
(570) 253-5978"
PA,Wayne County,Sterling,18463,"925 Court St.
Honesdale, PA 18431
(570) 253-5978"
PA,Pike County,Tafton,18464,"506 Broad St.
Pike County Administration Building
Milford, PA 18337-1535
(570) 296-3426"
PA,Susquehanna County,Thompson,18465,"P.O. Box 218
31 Lake Ave.
Montrose, PA 18801
(570) 278-4600 x 4090"
PA,Monroe County,Tobyhanna,18466,"One Quaker Plaza, Rm. 105
Stroudsburg, PA 18360
(570) 517-3165"
PA,Wayne County,Tyler Hill,18469,"925 Court St.
Honesdale, PA 18431
(570) 253-5978"
PA,Susquehanna County,Union Dale,18470,"P.O. Box 218
31 Lake Ave.
Montrose, PA 18801
(570) 278-4600 x 4090"
PA,Wayne County,Waymart,18472,"925 Court St.
Honesdale, PA 18431
(570) 253-5978"
PA,Lackawanna County,Scranton,18503,"123 Wyoming Ave., 2nd Floor
Scranton, PA 18503
(570) 963-6737"
PA,Lackawanna County,Scranton,18504,"123 Wyoming Ave., 2nd Floor
Scranton, PA 18503
(570) 963-6737"
PA,Lackawanna County,Scranton,18505,"123 Wyoming Ave., 2nd Floor
Scranton, PA 18503
(570) 963-6737"
PA,Lackawanna County,Moosic,18507,"123 Wyoming Ave., 2nd Floor
Scranton, PA 18503
(570) 963-6737"
PA,Lackawanna County,Scranton,18508,"123 Wyoming Ave., 2nd Floor
Scranton, PA 18503
(570) 963-6737"
PA,Lackawanna County,Scranton,18509,"123 Wyoming Ave., 2nd Floor
Scranton, PA 18503
(570) 963-6737"
PA,Lackawanna County,Scranton,18510,"123 Wyoming Ave., 2nd Floor
Scranton, PA 18503
(570) 963-6737"
PA,Lackawanna County,Scranton,18512,"123 Wyoming Ave., 2nd Floor
Scranton, PA 18503
(570) 963-6737"
PA,Lackawanna County,Scranton,18515,"123 Wyoming Ave., 2nd Floor
Scranton, PA 18503
(570) 963-6737"
PA,Lackawanna County,Taylor,18517,"123 Wyoming Ave., 2nd Floor
Scranton, PA 18503
(570) 963-6737"
PA,Lackawanna County,Old Forge,18518,"123 Wyoming Ave., 2nd Floor
Scranton, PA 18503
(570) 963-6737"
PA,Lackawanna County,Scranton,18519,"123 Wyoming Ave., 2nd Floor
Scranton, PA 18503
(570) 963-6737"
PA,Lackawanna County,Scranton,18540,"123 Wyoming Ave., 2nd Floor
Scranton, PA 18503
(570) 963-6737"
PA,Columbia County,Berwick,18603,"11 W. Main Street
Bloomsburg, PA 17815-0380
(570) 389-5640"
PA,Monroe County,Blakeslee,18610,"One Quaker Plaza, Rm. 105
Stroudsburg, PA 18360
(570) 517-3165"
PA,Luzerne County,Dallas,18612,"20 N. Pennsylvania Ave.
Ste. 207
Wilkes-Barre, PA 18701-3505
(570) 825-1715"
PA,Sullivan County,Dushore,18614,"P.O. Box 157
Main & Muncy Streets
Laporte, PA 18626-0157
(570) 946-5201"
PA,Wyoming County,Falls,18615,"1 Courthouse Square
Tunkhannock, PA 18657
(570) 996-2226"
PA,Sullivan County,Forksville,18616,"P.O. Box 157
Main & Muncy Streets
Laporte, PA 18626-0157
(570) 946-5201"
PA,Luzerne County,Glen Lyon,18617,"20 N. Pennsylvania Ave.
Ste. 207
Wilkes-Barre, PA 18701-3505
(570) 825-1715"
PA,Luzerne County,Harveys Lake,18618,"20 N. Pennsylvania Ave.
Ste. 207
Wilkes-Barre, PA 18701-3505
(570) 825-1715"
PA,Sullivan County,Hillsgrove,18619,"P.O. Box 157
Main & Muncy Streets
Laporte, PA 18626-0157
(570) 946-5201"
PA,Luzerne County,Hunlock Creek,18621,"20 N. Pennsylvania Ave.
Ste. 207
Wilkes-Barre, PA 18701-3505
(570) 825-1715"
PA,Luzerne County,Huntington Mills,18622,"20 N. Pennsylvania Ave.
Ste. 207
Wilkes-Barre, PA 18701-3505
(570) 825-1715"
PA,Wyoming County,Laceyville,18623,"1 Courthouse Square
Tunkhannock, PA 18657
(570) 996-2226"
PA,Sullivan County,Lopez,18628,"P.O. Box 157
Main & Muncy Streets
Laporte, PA 18626-0157
(570) 946-5201"
PA,Wyoming County,Mehoopany,18629,"1 Courthouse Square
Tunkhannock, PA 18657
(570) 996-2226"
PA,Wyoming County,Meshoppen,18630,"1 Courthouse Square
Tunkhannock, PA 18657
(570) 996-2226"
PA,Sullivan County,Mildred,18632,"P.O. Box 157
Main & Muncy Streets
Laporte, PA 18626-0157
(570) 946-5201"
PA,Luzerne County,Nanticoke,18634,"20 N. Pennsylvania Ave.
Ste. 207
Wilkes-Barre, PA 18701-3505
(570) 825-1715"
PA,Luzerne County,Nescopeck,18635,"20 N. Pennsylvania Ave.
Ste. 207
Wilkes-Barre, PA 18701-3505
(570) 825-1715"
PA,Wyoming County,Noxen,18636,"1 Courthouse Square
Tunkhannock, PA 18657
(570) 996-2226"
PA,Luzerne County,Pittston,18640,"20 N. Pennsylvania Ave.
Ste. 207
Wilkes-Barre, PA 18701-3505
(570) 825-1715"
PA,Luzerne County,Pittston,18641,"20 N. Pennsylvania Ave.
Ste. 207
Wilkes-Barre, PA 18701-3505
(570) 825-1715"
PA,Luzerne County,Duryea,18642,"20 N. Pennsylvania Ave.
Ste. 207
Wilkes-Barre, PA 18701-3505
(570) 825-1715"
PA,Luzerne County,Pittston,18643,"20 N. Pennsylvania Ave.
Ste. 207
Wilkes-Barre, PA 18701-3505
(570) 825-1715"
PA,Luzerne County,Wyoming,18644,"20 N. Pennsylvania Ave.
Ste. 207
Wilkes-Barre, PA 18701-3505
(570) 825-1715"
PA,Luzerne County,Plymouth,18651,"20 N. Pennsylvania Ave.
Ste. 207
Wilkes-Barre, PA 18701-3505
(570) 825-1715"
PA,Luzerne County,Shickshinny,18655,"20 N. Pennsylvania Ave.
Ste. 207
Wilkes-Barre, PA 18701-3505
(570) 825-1715"
PA,Luzerne County,Sweet Valley,18656,"20 N. Pennsylvania Ave.
Ste. 207
Wilkes-Barre, PA 18701-3505
(570) 825-1715"
PA,Wyoming County,Tunkhannock,18657,"1 Courthouse Square
Tunkhannock, PA 18657
(570) 996-2226"
PA,Luzerne County,Wapwallopen,18660,"20 N. Pennsylvania Ave.
Ste. 207
Wilkes-Barre, PA 18701-3505
(570) 825-1715"
PA,Luzerne County,White Haven,18661,"20 N. Pennsylvania Ave.
Ste. 207
Wilkes-Barre, PA 18701-3505
(570) 825-1715"
PA,Luzerne County,Wilkes Barre,18701,"20 N. Pennsylvania Ave.
Ste. 207
Wilkes-Barre, PA 18701-3505
(570) 825-1715"
PA,Luzerne County,Wilkes Barre,18702,"20 N. Pennsylvania Ave.
Ste. 207
Wilkes-Barre, PA 18701-3505
(570) 825-1715"
PA,Luzerne County,Kingston,18704,"20 N. Pennsylvania Ave.
Ste. 207
Wilkes-Barre, PA 18701-3505
(570) 825-1715"
PA,Luzerne County,Wilkes Barre,18705,"20 N. Pennsylvania Ave.
Ste. 207
Wilkes-Barre, PA 18701-3505
(570) 825-1715"
PA,Luzerne County,Wilkes Barre,18706,"20 N. Pennsylvania Ave.
Ste. 207
Wilkes-Barre, PA 18701-3505
(570) 825-1715"
PA,Luzerne County,Mountain Top,18707,"20 N. Pennsylvania Ave.
Ste. 207
Wilkes-Barre, PA 18701-3505
(570) 825-1715"
PA,Luzerne County,Shavertown,18708,"20 N. Pennsylvania Ave.
Ste. 207
Wilkes-Barre, PA 18701-3505
(570) 825-1715"
PA,Luzerne County,Luzerne,18709,"20 N. Pennsylvania Ave.
Ste. 207
Wilkes-Barre, PA 18701-3505
(570) 825-1715"
PA,Luzerne County,Wilkes Barre,18711,"20 N. Pennsylvania Ave.
Ste. 207
Wilkes-Barre, PA 18701-3505
(570) 825-1715"
PA,Susquehanna County,Montrose,18801,"P.O. Box 218
31 Lake Ave.
Montrose, PA 18801
(570) 278-4600 x 4090"
PA,Bradford County,Athens,18810,"6 Court St., Ste. 2
Towanda, PA 18848
(570) 265-1717"
PA,Susquehanna County,Brackney,18812,"P.O. Box 218
31 Lake Ave.
Montrose, PA 18801
(570) 278-4600 x 4090"
PA,Bradford County,East Smithfield,18817,"6 Court St., Ste. 2
Towanda, PA 18848
(570) 265-1717"
PA,Susquehanna County,Friendsville,18818,"P.O. Box 218
31 Lake Ave.
Montrose, PA 18801
(570) 278-4600 x 4090"
PA,Susquehanna County,Great Bend,18821,"P.O. Box 218
31 Lake Ave.
Montrose, PA 18801
(570) 278-4600 x 4090"
PA,Susquehanna County,Hallstead,18822,"P.O. Box 218
31 Lake Ave.
Montrose, PA 18801
(570) 278-4600 x 4090"
PA,Susquehanna County,Harford,18823,"P.O. Box 218
31 Lake Ave.
Montrose, PA 18801
(570) 278-4600 x 4090"
PA,Susquehanna County,Hop Bottom,18824,"P.O. Box 218
31 Lake Ave.
Montrose, PA 18801
(570) 278-4600 x 4090"
PA,Susquehanna County,Jackson,18825,"P.O. Box 218
31 Lake Ave.
Montrose, PA 18801
(570) 278-4600 x 4090"
PA,Susquehanna County,Kingsley,18826,"P.O. Box 218
31 Lake Ave.
Montrose, PA 18801
(570) 278-4600 x 4090"
PA,Susquehanna County,Lawton,18828,"P.O. Box 218
31 Lake Ave.
Montrose, PA 18801
(570) 278-4600 x 4090"
PA,Bradford County,Le Raysville,18829,"6 Court St., Ste. 2
Towanda, PA 18848
(570) 265-1717"
PA,Susquehanna County,Little Meadows,18830,"P.O. Box 218
31 Lake Ave.
Montrose, PA 18801
(570) 278-4600 x 4090"
PA,Bradford County,Milan,18831,"6 Court St., Ste. 2
Towanda, PA 18848
(570) 265-1717"
PA,Bradford County,Monroeton,18832,"6 Court St., Ste. 2
Towanda, PA 18848
(570) 265-1717"
PA,Bradford County,New Albany,18833,"6 Court St., Ste. 2
Towanda, PA 18848
(570) 265-1717"
PA,Susquehanna County,New Milford,18834,"P.O. Box 218
31 Lake Ave.
Montrose, PA 18801
(570) 278-4600 x 4090"
PA,Bradford County,Rome,18837,"6 Court St., Ste. 2
Towanda, PA 18848
(570) 265-1717"
PA,Bradford County,Sayre,18840,"6 Court St., Ste. 2
Towanda, PA 18848
(570) 265-1717"
PA,Susquehanna County,South Gibson,18842,"P.O. Box 218
31 Lake Ave.
Montrose, PA 18801
(570) 278-4600 x 4090"
PA,Susquehanna County,Springville,18844,"P.O. Box 218
31 Lake Ave.
Montrose, PA 18801
(570) 278-4600 x 4090"
PA,Bradford County,Stevensville,18845,"6 Court St., Ste. 2
Towanda, PA 18848
(570) 265-1717"
PA,Bradford County,Sugar Run,18846,"6 Court St., Ste. 2
Towanda, PA 18848
(570) 265-1717"
PA,Susquehanna County,Susquehanna,18847,"P.O. Box 218
31 Lake Ave.
Montrose, PA 18801
(570) 278-4600 x 4090"
PA,Bradford County,Towanda,18848,"6 Court St., Ste. 2
Towanda, PA 18848
(570) 265-1717"
PA,Bradford County,Ulster,18850,"6 Court St., Ste. 2
Towanda, PA 18848
(570) 265-1717"
PA,Bradford County,Warren Center,18851,"6 Court St., Ste. 2
Towanda, PA 18848
(570) 265-1717"
PA,Bradford County,Wyalusing,18853,"6 Court St., Ste. 2
Towanda, PA 18848
(570) 265-1717"
PA,Bradford County,Wysox,18854,"6 Court St., Ste. 2
Towanda, PA 18848
(570) 265-1717"
PA,Bucks County,Doylestown,18901,"55 E. Court St.
Doylestown, PA 18901
(215) 348-6154"
PA,Bucks County,Doylestown,18902,"55 E. Court St.
Doylestown, PA 18901
(215) 348-6154"
PA,Bucks County,Carversville,18913,"55 E. Court St.
Doylestown, PA 18901
(215) 348-6154"
PA,Bucks County,Chalfont,18914,"55 E. Court St.
Doylestown, PA 18901
(215) 348-6154"
PA,Montgomery County,Colmar,18915,"P.O. Box 311
Norristown, PA 19404-0311
(610) 278-3275"
PA,Bucks County,Dublin,18917,"55 E. Court St.
Doylestown, PA 18901
(215) 348-6154"
PA,Bucks County,Erwinna,18920,"55 E. Court St.
Doylestown, PA 18901
(215) 348-6154"
PA,Bucks County,Fountainville,18923,"55 E. Court St.
Doylestown, PA 18901
(215) 348-6154"
PA,Bucks County,Furlong,18925,"55 E. Court St.
Doylestown, PA 18901
(215) 348-6154"
PA,Bucks County,Hilltown,18927,"55 E. Court St.
Doylestown, PA 18901
(215) 348-6154"
PA,Bucks County,Jamison,18929,"55 E. Court St.
Doylestown, PA 18901
(215) 348-6154"
PA,Bucks County,Kintnersville,18930,"55 E. Court St.
Doylestown, PA 18901
(215) 348-6154"
PA,Bucks County,Line Lexington,18932,"55 E. Court St.
Doylestown, PA 18901
(215) 348-6154"
PA,Bucks County,Lumberville,18933,"55 E. Court St.
Doylestown, PA 18901
(215) 348-6154"
PA,Bucks County,Mechanicsville,18934,"55 E. Court St.
Doylestown, PA 18901
(215) 348-6154"
PA,Montgomery County,Montgomeryville,18936,"P.O. Box 311
Norristown, PA 19404-0311
(610) 278-3275"
PA,Bucks County,New Hope,18938,"55 E. Court St.
Doylestown, PA 18901
(215) 348-6154"
PA,Bucks County,Newtown,18940,"55 E. Court St.
Doylestown, PA 18901
(215) 348-6154"
PA,Bucks County,Ottsville,18942,"55 E. Court St.
Doylestown, PA 18901
(215) 348-6154"
PA,Bucks County,Perkasie,18944,"55 E. Court St.
Doylestown, PA 18901
(215) 348-6154"
PA,Bucks County,Pipersville,18947,"55 E. Court St.
Doylestown, PA 18901
(215) 348-6154"
PA,Bucks County,Quakertown,18951,"55 E. Court St.
Doylestown, PA 18901
(215) 348-6154"
PA,Bucks County,Richboro,18954,"55 E. Court St.
Doylestown, PA 18901
(215) 348-6154"
PA,Bucks County,Richlandtown,18955,"55 E. Court St.
Doylestown, PA 18901
(215) 348-6154"
PA,Bucks County,Sellersville,18960,"55 E. Court St.
Doylestown, PA 18901
(215) 348-6154"
PA,Montgomery County,Souderton,18964,"P.O. Box 311
Norristown, PA 19404-0311
(610) 278-3275"
PA,Bucks County,Southampton,18966,"55 E. Court St.
Doylestown, PA 18901
(215) 348-6154"
PA,Montgomery County,Telford,18969,"P.O. Box 311
Norristown, PA 19404-0311
(610) 278-3275"
PA,Bucks County,Upper Black Eddy,18972,"55 E. Court St.
Doylestown, PA 18901
(215) 348-6154"
PA,Bucks County,Warminster,18974,"55 E. Court St.
Doylestown, PA 18901
(215) 348-6154"
PA,Bucks County,Warrington,18976,"55 E. Court St.
Doylestown, PA 18901
(215) 348-6154"
PA,Bucks County,Washington Crossing,18977,"55 E. Court St.
Doylestown, PA 18901
(215) 348-6154"
PA,Montgomery County,Abington,19001,"P.O. Box 311
Norristown, PA 19404-0311
(610) 278-3275"
PA,Montgomery County,Ambler,19002,"P.O. Box 311
Norristown, PA 19404-0311
(610) 278-3275"
PA,Montgomery County,Ardmore,19003,"P.O. Box 311
Norristown, PA 19404-0311
(610) 278-3275"
PA,Montgomery County,Bala Cynwyd,19004,"P.O. Box 311
Norristown, PA 19404-0311
(610) 278-3275"
PA,Montgomery County,Huntingdon Valley,19006,"P.O. Box 311
Norristown, PA 19404-0311
(610) 278-3275"
PA,Bucks County,Bristol,19007,"55 E. Court St.
Doylestown, PA 18901
(215) 348-6154"
PA,Delaware County,Broomall,19008,"201 W. Front St.
Government Center Bldg.
Media, PA 19063
(610) 891-4673"
PA,Delaware County,Bryn Mawr,19010,"201 W. Front St.
Government Center Bldg.
Media, PA 19063
(610) 891-4673"
PA,Montgomery County,Cheltenham,19012,"P.O. Box 311
Norristown, PA 19404-0311
(610) 278-3275"
PA,Delaware County,Chester,19013,"201 W. Front St.
Government Center Bldg.
Media, PA 19063
(610) 891-4673"
PA,Delaware County,Aston,19014,"201 W. Front St.
Government Center Bldg.
Media, PA 19063
(610) 891-4673"
PA,Delaware County,Brookhaven,19015,"201 W. Front St.
Government Center Bldg.
Media, PA 19063
(610) 891-4673"
PA,Delaware County,Clifton Heights,19018,"201 W. Front St.
Government Center Bldg.
Media, PA 19063
(610) 891-4673"
PA,Bucks County,Bensalem,19020,"55 E. Court St.
Doylestown, PA 18901
(215) 348-6154"
PA,Bucks County,Croydon,19021,"55 E. Court St.
Doylestown, PA 18901
(215) 348-6154"
PA,Delaware County,Crum Lynne,19022,"201 W. Front St.
Government Center Bldg.
Media, PA 19063
(610) 891-4673"
PA,Delaware County,Darby,19023,"201 W. Front St.
Government Center Bldg.
Media, PA 19063
(610) 891-4673"
PA,Montgomery County,Dresher,19025,"P.O. Box 311
Norristown, PA 19404-0311
(610) 278-3275"
PA,Delaware County,Drexel Hill,19026,"201 W. Front St.
Government Center Bldg.
Media, PA 19063
(610) 891-4673"
PA,Montgomery County,Elkins Park,19027,"P.O. Box 311
Norristown, PA 19404-0311
(610) 278-3275"
PA,Delaware County,Essington,19029,"201 W. Front St.
Government Center Bldg.
Media, PA 19063
(610) 891-4673"
PA,Bucks County,Fairless Hills,19030,"55 E. Court St.
Doylestown, PA 18901
(215) 348-6154"
PA,Montgomery County,Flourtown,19031,"P.O. Box 311
Norristown, PA 19404-0311
(610) 278-3275"
PA,Delaware County,Folcroft,19032,"201 W. Front St.
Government Center Bldg.
Media, PA 19063
(610) 891-4673"
PA,Delaware County,Folsom,19033,"201 W. Front St.
Government Center Bldg.
Media, PA 19063
(610) 891-4673"
PA,Montgomery County,Fort Washington,19034,"P.O. Box 311
Norristown, PA 19404-0311
(610) 278-3275"
PA,Montgomery County,Gladwyne,19035,"P.O. Box 311
Norristown, PA 19404-0311
(610) 278-3275"
PA,Delaware County,Glenolden,19036,"201 W. Front St.
Government Center Bldg.
Media, PA 19063
(610) 891-4673"
PA,Montgomery County,Glenside,19038,"P.O. Box 311
Norristown, PA 19404-0311
(610) 278-3275"
PA,Montgomery County,Hatboro,19040,"P.O. Box 311
Norristown, PA 19404-0311
(610) 278-3275"
PA,Delaware County,Haverford,19041,"201 W. Front St.
Government Center Bldg.
Media, PA 19063
(610) 891-4673"
PA,Delaware County,Holmes,19043,"201 W. Front St.
Government Center Bldg.
Media, PA 19063
(610) 891-4673"
PA,Montgomery County,Horsham,19044,"P.O. Box 311
Norristown, PA 19404-0311
(610) 278-3275"
PA,Montgomery County,Jenkintown,19046,"P.O. Box 311
Norristown, PA 19404-0311
(610) 278-3275"
PA,Bucks County,Langhorne,19047,"55 E. Court St.
Doylestown, PA 18901
(215) 348-6154"
PA,Delaware County,Lansdowne,19050,"201 W. Front St.
Government Center Bldg.
Media, PA 19063
(610) 891-4673"
PA,Bucks County,Feasterville Trevose,19053,"55 E. Court St.
Doylestown, PA 18901
(215) 348-6154"
PA,Bucks County,Levittown,19054,"55 E. Court St.
Doylestown, PA 18901
(215) 348-6154"
PA,Bucks County,Levittown,19055,"55 E. Court St.
Doylestown, PA 18901
(215) 348-6154"
PA,Bucks County,Levittown,19056,"55 E. Court St.
Doylestown, PA 18901
(215) 348-6154"
PA,Bucks County,Levittown,19057,"55 E. Court St.
Doylestown, PA 18901
(215) 348-6154"
PA,Delaware County,Garnet Valley,19060,"201 W. Front St.
Government Center Bldg.
Media, PA 19063
(610) 891-4673"
PA,Delaware County,Marcus Hook,19061,"201 W. Front St.
Government Center Bldg.
Media, PA 19063
(610) 891-4673"
PA,Delaware County,Media,19063,"201 W. Front St.
Government Center Bldg.
Media, PA 19063
(610) 891-4673"
PA,Delaware County,Springfield,19064,"201 W. Front St.
Government Center Bldg.
Media, PA 19063
(610) 891-4673"
PA,Montgomery County,Merion Station,19066,"P.O. Box 311
Norristown, PA 19404-0311
(610) 278-3275"
PA,Bucks County,Morrisville,19067,"55 E. Court St.
Doylestown, PA 18901
(215) 348-6154"
PA,Delaware County,Morton,19070,"201 W. Front St.
Government Center Bldg.
Media, PA 19063
(610) 891-4673"
PA,Montgomery County,Narberth,19072,"P.O. Box 311
Norristown, PA 19404-0311
(610) 278-3275"
PA,Delaware County,Newtown Square,19073,"201 W. Front St.
Government Center Bldg.
Media, PA 19063
(610) 891-4673"
PA,Delaware County,Norwood,19074,"201 W. Front St.
Government Center Bldg.
Media, PA 19063
(610) 891-4673"
PA,Montgomery County,Oreland,19075,"P.O. Box 311
Norristown, PA 19404-0311
(610) 278-3275"
PA,Delaware County,Prospect Park,19076,"201 W. Front St.
Government Center Bldg.
Media, PA 19063
(610) 891-4673"
PA,Delaware County,Ridley Park,19078,"201 W. Front St.
Government Center Bldg.
Media, PA 19063
(610) 891-4673"
PA,Delaware County,Sharon Hill,19079,"201 W. Front St.
Government Center Bldg.
Media, PA 19063
(610) 891-4673"
PA,Delaware County,Swarthmore,19081,"201 W. Front St.
Government Center Bldg.
Media, PA 19063
(610) 891-4673"
PA,Delaware County,Upper Darby,19082,"201 W. Front St.
Government Center Bldg.
Media, PA 19063
(610) 891-4673"
PA,Delaware County,Havertown,19083,"201 W. Front St.
Government Center Bldg.
Media, PA 19063
(610) 891-4673"
PA,Delaware County,Villanova,19085,"201 W. Front St.
Government Center Bldg.
Media, PA 19063
(610) 891-4673"
PA,Delaware County,Wallingford,19086,"201 W. Front St.
Government Center Bldg.
Media, PA 19063
(610) 891-4673"
PA,Chester County,Wayne,19087,"601 Westtown Rd., Ste. 150
PO Box 2747
West Chester, PA 19380-0990
(610) 344-6410"
PA,Montgomery County,Willow Grove,19090,"P.O. Box 311
Norristown, PA 19404-0311
(610) 278-3275"
PA,Delaware County,Woodlyn,19094,"201 W. Front St.
Government Center Bldg.
Media, PA 19063
(610) 891-4673"
PA,Montgomery County,Wyncote,19095,"P.O. Box 311
Norristown, PA 19404-0311
(610) 278-3275"
PA,Montgomery County,Wynnewood,19096,"P.O. Box 311
Norristown, PA 19404-0311
(610) 278-3275"
PA,Philadelphia County,Philadelphia,19102,"Rm. 142
City Hall
Philadelphia, PA 19107
(215) 686-3469

"
PA,Philadelphia County,Philadelphia,19103,"Rm. 142
City Hall
Philadelphia, PA 19107
(215) 686-3469

"
PA,Philadelphia County,Philadelphia,19104,"Rm. 142
City Hall
Philadelphia, PA 19107
(215) 686-3469

"
PA,Philadelphia County,Philadelphia,19106,"Rm. 142
City Hall
Philadelphia, PA 19107
(215) 686-3469

"
PA,Philadelphia County,Philadelphia,19107,"Rm. 142
City Hall
Philadelphia, PA 19107
(215) 686-3469

"
PA,Philadelphia County,Philadelphia,19109,"Rm. 142
City Hall
Philadelphia, PA 19107
(215) 686-3469

"
PA,Philadelphia County,Philadelphia,19110,"Rm. 142
City Hall
Philadelphia, PA 19107
(215) 686-3469

"
PA,Philadelphia County,Philadelphia,19111,"Rm. 142
City Hall
Philadelphia, PA 19107
(215) 686-3469

"
PA,Philadelphia County,Philadelphia,19112,"Rm. 142
City Hall
Philadelphia, PA 19107
(215) 686-3469

"
PA,Delaware County,Philadelphia,19113,"201 W. Front St.
Government Center Bldg.
Media, PA 19063
(610) 891-4673"
PA,Philadelphia County,Philadelphia,19114,"Rm. 142
City Hall
Philadelphia, PA 19107
(215) 686-3469

"
PA,Philadelphia County,Philadelphia,19115,"Rm. 142
City Hall
Philadelphia, PA 19107
(215) 686-3469

"
PA,Philadelphia County,Philadelphia,19116,"Rm. 142
City Hall
Philadelphia, PA 19107
(215) 686-3469

"
PA,Philadelphia County,Philadelphia,19118,"Rm. 142
City Hall
Philadelphia, PA 19107
(215) 686-3469

"
PA,Philadelphia County,Philadelphia,19119,"Rm. 142
City Hall
Philadelphia, PA 19107
(215) 686-3469

"
PA,Philadelphia County,Philadelphia,19120,"Rm. 142
City Hall
Philadelphia, PA 19107
(215) 686-3469

"
PA,Philadelphia County,Philadelphia,19121,"Rm. 142
City Hall
Philadelphia, PA 19107
(215) 686-3469

"
PA,Philadelphia County,Philadelphia,19122,"Rm. 142
City Hall
Philadelphia, PA 19107
(215) 686-3469

"
PA,Philadelphia County,Philadelphia,19123,"Rm. 142
City Hall
Philadelphia, PA 19107
(215) 686-3469

"
PA,Philadelphia County,Philadelphia,19124,"Rm. 142
City Hall
Philadelphia, PA 19107
(215) 686-3469

"
PA,Philadelphia County,Philadelphia,19125,"Rm. 142
City Hall
Philadelphia, PA 19107
(215) 686-3469

"
PA,Philadelphia County,Philadelphia,19126,"Rm. 142
City Hall
Philadelphia, PA 19107
(215) 686-3469

"
PA,Philadelphia County,Philadelphia,19127,"Rm. 142
City Hall
Philadelphia, PA 19107
(215) 686-3469

"
PA,Philadelphia County,Philadelphia,19128,"Rm. 142
City Hall
Philadelphia, PA 19107
(215) 686-3469

"
PA,Philadelphia County,Philadelphia,19129,"Rm. 142
City Hall
Philadelphia, PA 19107
(215) 686-3469

"
PA,Philadelphia County,Philadelphia,19130,"Rm. 142
City Hall
Philadelphia, PA 19107
(215) 686-3469

"
PA,Philadelphia County,Philadelphia,19131,"Rm. 142
City Hall
Philadelphia, PA 19107
(215) 686-3469

"
PA,Philadelphia County,Philadelphia,19132,"Rm. 142
City Hall
Philadelphia, PA 19107
(215) 686-3469

"
PA,Philadelphia County,Philadelphia,19133,"Rm. 142
City Hall
Philadelphia, PA 19107
(215) 686-3469

"
PA,Philadelphia County,Philadelphia,19134,"Rm. 142
City Hall
Philadelphia, PA 19107
(215) 686-3469

"
PA,Philadelphia County,Philadelphia,19135,"Rm. 142
City Hall
Philadelphia, PA 19107
(215) 686-3469

"
PA,Philadelphia County,Philadelphia,19136,"Rm. 142
City Hall
Philadelphia, PA 19107
(215) 686-3469

"
PA,Philadelphia County,Philadelphia,19137,"Rm. 142
City Hall
Philadelphia, PA 19107
(215) 686-3469

"
PA,Philadelphia County,Philadelphia,19138,"Rm. 142
City Hall
Philadelphia, PA 19107
(215) 686-3469

"
PA,Philadelphia County,Philadelphia,19139,"Rm. 142
City Hall
Philadelphia, PA 19107
(215) 686-3469

"
PA,Philadelphia County,Philadelphia,19140,"Rm. 142
City Hall
Philadelphia, PA 19107
(215) 686-3469

"
PA,Philadelphia County,Philadelphia,19141,"Rm. 142
City Hall
Philadelphia, PA 19107
(215) 686-3469

"
PA,Philadelphia County,Philadelphia,19142,"Rm. 142
City Hall
Philadelphia, PA 19107
(215) 686-3469

"
PA,Philadelphia County,Philadelphia,19143,"Rm. 142
City Hall
Philadelphia, PA 19107
(215) 686-3469

"
PA,Philadelphia County,Philadelphia,19144,"Rm. 142
City Hall
Philadelphia, PA 19107
(215) 686-3469

"
PA,Philadelphia County,Philadelphia,19145,"Rm. 142
City Hall
Philadelphia, PA 19107
(215) 686-3469

"
PA,Philadelphia County,Philadelphia,19146,"Rm. 142
City Hall
Philadelphia, PA 19107
(215) 686-3469

"
PA,Philadelphia County,Philadelphia,19147,"Rm. 142
City Hall
Philadelphia, PA 19107
(215) 686-3469

"
PA,Philadelphia County,Philadelphia,19148,"Rm. 142
City Hall
Philadelphia, PA 19107
(215) 686-3469

"
PA,Philadelphia County,Philadelphia,19149,"Rm. 142
City Hall
Philadelphia, PA 19107
(215) 686-3469

"
PA,Philadelphia County,Philadelphia,19150,"Rm. 142
City Hall
Philadelphia, PA 19107
(215) 686-3469

"
PA,Philadelphia County,Philadelphia,19151,"Rm. 142
City Hall
Philadelphia, PA 19107
(215) 686-3469

"
PA,Philadelphia County,Philadelphia,19152,"Rm. 142
City Hall
Philadelphia, PA 19107
(215) 686-3469

"
PA,Philadelphia County,Philadelphia,19153,"Rm. 142
City Hall
Philadelphia, PA 19107
(215) 686-3469

"
PA,Philadelphia County,Philadelphia,19154,"Rm. 142
City Hall
Philadelphia, PA 19107
(215) 686-3469

"
PA,Philadelphia County,Philadelphia,19176,"Rm. 142
City Hall
Philadelphia, PA 19107
(215) 686-3469

"
PA,Philadelphia County,Philadelphia,19190,"Rm. 142
City Hall
Philadelphia, PA 19107
(215) 686-3469

"
PA,Chester County,Paoli,19301,"601 Westtown Rd., Ste. 150
PO Box 2747
West Chester, PA 19380-0990
(610) 344-6410"
PA,Chester County,Atglen,19310,"601 Westtown Rd., Ste. 150
PO Box 2747
West Chester, PA 19380-0990
(610) 344-6410"
PA,Chester County,Avondale,19311,"601 Westtown Rd., Ste. 150
PO Box 2747
West Chester, PA 19380-0990
(610) 344-6410"
PA,Chester County,Berwyn,19312,"601 Westtown Rd., Ste. 150
PO Box 2747
West Chester, PA 19380-0990
(610) 344-6410"
PA,Delaware County,Chadds Ford,19317,"201 W. Front St.
Government Center Bldg.
Media, PA 19063
(610) 891-4673"
PA,Delaware County,Cheyney,19319,"201 W. Front St.
Government Center Bldg.
Media, PA 19063
(610) 891-4673"
PA,Chester County,Coatesville,19320,"601 Westtown Rd., Ste. 150
PO Box 2747
West Chester, PA 19380-0990
(610) 344-6410"
PA,Chester County,Cochranville,19330,"601 Westtown Rd., Ste. 150
PO Box 2747
West Chester, PA 19380-0990
(610) 344-6410"
PA,Chester County,Devon,19333,"601 Westtown Rd., Ste. 150
PO Box 2747
West Chester, PA 19380-0990
(610) 344-6410"
PA,Chester County,Downingtown,19335,"601 Westtown Rd., Ste. 150
PO Box 2747
West Chester, PA 19380-0990
(610) 344-6410"
PA,Chester County,Exton,19341,"601 Westtown Rd., Ste. 150
PO Box 2747
West Chester, PA 19380-0990
(610) 344-6410"
PA,Delaware County,Glen Mills,19342,"201 W. Front St.
Government Center Bldg.
Media, PA 19063
(610) 891-4673"
PA,Chester County,Glenmoore,19343,"601 Westtown Rd., Ste. 150
PO Box 2747
West Chester, PA 19380-0990
(610) 344-6410"
PA,Chester County,Honey Brook,19344,"601 Westtown Rd., Ste. 150
PO Box 2747
West Chester, PA 19380-0990
(610) 344-6410"
PA,Chester County,Kennett Square,19348,"601 Westtown Rd., Ste. 150
PO Box 2747
West Chester, PA 19380-0990
(610) 344-6410"
PA,Chester County,Landenberg,19350,"601 Westtown Rd., Ste. 150
PO Box 2747
West Chester, PA 19380-0990
(610) 344-6410"
PA,Chester County,Lincoln University,19352,"601 Westtown Rd., Ste. 150
PO Box 2747
West Chester, PA 19380-0990
(610) 344-6410"
PA,Chester County,Malvern,19355,"601 Westtown Rd., Ste. 150
PO Box 2747
West Chester, PA 19380-0990
(610) 344-6410"
PA,Chester County,Nottingham,19362,"601 Westtown Rd., Ste. 150
PO Box 2747
West Chester, PA 19380-0990
(610) 344-6410"
PA,Chester County,Oxford,19363,"601 Westtown Rd., Ste. 150
PO Box 2747
West Chester, PA 19380-0990
(610) 344-6410"
PA,Chester County,Parkesburg,19365,"601 Westtown Rd., Ste. 150
PO Box 2747
West Chester, PA 19380-0990
(610) 344-6410"
PA,Chester County,Thorndale,19372,"601 Westtown Rd., Ste. 150
PO Box 2747
West Chester, PA 19380-0990
(610) 344-6410"
PA,Delaware County,Thornton,19373,"201 W. Front St.
Government Center Bldg.
Media, PA 19063
(610) 891-4673"
PA,Chester County,Toughkenamon,19374,"601 Westtown Rd., Ste. 150
PO Box 2747
West Chester, PA 19380-0990
(610) 344-6410"
PA,Chester County,West Chester,19380,"601 Westtown Rd., Ste. 150
PO Box 2747
West Chester, PA 19380-0990
(610) 344-6410"
PA,Chester County,West Chester,19382,"601 Westtown Rd., Ste. 150
PO Box 2747
West Chester, PA 19380-0990
(610) 344-6410"
PA,Chester County,West Grove,19390,"601 Westtown Rd., Ste. 150
PO Box 2747
West Chester, PA 19380-0990
(610) 344-6410"
PA,Montgomery County,Norristown,19401,"P.O. Box 311
Norristown, PA 19404-0311
(610) 278-3275"
PA,Montgomery County,Norristown,19403,"P.O. Box 311
Norristown, PA 19404-0311
(610) 278-3275"
PA,Montgomery County,Bridgeport,19405,"P.O. Box 311
Norristown, PA 19404-0311
(610) 278-3275"
PA,Montgomery County,King Of Prussia,19406,"P.O. Box 311
Norristown, PA 19404-0311
(610) 278-3275"
PA,Montgomery County,Blue Bell,19422,"P.O. Box 311
Norristown, PA 19404-0311
(610) 278-3275"
PA,Chester County,Chester Springs,19425,"601 Westtown Rd., Ste. 150
PO Box 2747
West Chester, PA 19380-0990
(610) 344-6410"
PA,Montgomery County,Collegeville,19426,"P.O. Box 311
Norristown, PA 19404-0311
(610) 278-3275"
PA,Montgomery County,Conshohocken,19428,"P.O. Box 311
Norristown, PA 19404-0311
(610) 278-3275"
PA,Montgomery County,Frederick,19435,"P.O. Box 311
Norristown, PA 19404-0311
(610) 278-3275"
PA,Montgomery County,Gwynedd,19436,"P.O. Box 311
Norristown, PA 19404-0311
(610) 278-3275"
PA,Montgomery County,Harleysville,19438,"P.O. Box 311
Norristown, PA 19404-0311
(610) 278-3275"
PA,Montgomery County,Hatfield,19440,"P.O. Box 311
Norristown, PA 19404-0311
(610) 278-3275"
PA,Montgomery County,Lafayette Hill,19444,"P.O. Box 311
Norristown, PA 19404-0311
(610) 278-3275"
PA,Montgomery County,Lansdale,19446,"P.O. Box 311
Norristown, PA 19404-0311
(610) 278-3275"
PA,Montgomery County,Mont Clare,19453,"P.O. Box 311
Norristown, PA 19404-0311
(610) 278-3275"
PA,Montgomery County,North Wales,19454,"P.O. Box 311
Norristown, PA 19404-0311
(610) 278-3275"
PA,Chester County,Phoenixville,19460,"601 Westtown Rd., Ste. 150
PO Box 2747
West Chester, PA 19380-0990
(610) 344-6410"
PA,Montgomery County,Plymouth Meeting,19462,"P.O. Box 311
Norristown, PA 19404-0311
(610) 278-3275"
PA,Montgomery County,Pottstown,19464,"P.O. Box 311
Norristown, PA 19404-0311
(610) 278-3275"
PA,Chester County,Pottstown,19465,"601 Westtown Rd., Ste. 150
PO Box 2747
West Chester, PA 19380-0990
(610) 344-6410"
PA,Montgomery County,Royersford,19468,"P.O. Box 311
Norristown, PA 19404-0311
(610) 278-3275"
PA,Montgomery County,Schwenksville,19473,"P.O. Box 311
Norristown, PA 19404-0311
(610) 278-3275"
PA,Chester County,Spring City,19475,"601 Westtown Rd., Ste. 150
PO Box 2747
West Chester, PA 19380-0990
(610) 344-6410"
PA,Montgomery County,Spring House,19477,"P.O. Box 311
Norristown, PA 19404-0311
(610) 278-3275"
PA,Montgomery County,Zieglerville,19492,"P.O. Box 311
Norristown, PA 19404-0311
(610) 278-3275"
PA,Berks County,Bally,19503,"633 Court St., 1st Floor
Reading, PA 19601
(610) 478-6490"
PA,Berks County,Barto,19504,"633 Court St., 1st Floor
Reading, PA 19601
(610) 478-6490"
PA,Berks County,Bechtelsville,19505,"633 Court St., 1st Floor
Reading, PA 19601
(610) 478-6490"
PA,Berks County,Bernville,19506,"633 Court St., 1st Floor
Reading, PA 19601
(610) 478-6490"
PA,Berks County,Bethel,19507,"633 Court St., 1st Floor
Reading, PA 19601
(610) 478-6490"
PA,Berks County,Birdsboro,19508,"633 Court St., 1st Floor
Reading, PA 19601
(610) 478-6490"
PA,Berks County,Blandon,19510,"633 Court St., 1st Floor
Reading, PA 19601
(610) 478-6490"
PA,Berks County,Boyertown,19512,"633 Court St., 1st Floor
Reading, PA 19601
(610) 478-6490"
PA,Berks County,Douglassville,19518,"633 Court St., 1st Floor
Reading, PA 19601
(610) 478-6490"
PA,Chester County,Elverson,19520,"601 Westtown Rd., Ste. 150
PO Box 2747
West Chester, PA 19380-0990
(610) 344-6410"
PA,Berks County,Fleetwood,19522,"633 Court St., 1st Floor
Reading, PA 19601
(610) 478-6490"
PA,Montgomery County,Gilbertsville,19525,"P.O. Box 311
Norristown, PA 19404-0311
(610) 278-3275"
PA,Berks County,Hamburg,19526,"633 Court St., 1st Floor
Reading, PA 19601
(610) 478-6490"
PA,Berks County,Kempton,19529,"633 Court St., 1st Floor
Reading, PA 19601
(610) 478-6490"
PA,Berks County,Kutztown,19530,"633 Court St., 1st Floor
Reading, PA 19601
(610) 478-6490"
PA,Berks County,Leesport,19533,"633 Court St., 1st Floor
Reading, PA 19601
(610) 478-6490"
PA,Berks County,Lenhartsville,19534,"633 Court St., 1st Floor
Reading, PA 19601
(610) 478-6490"
PA,Berks County,Mertztown,19539,"633 Court St., 1st Floor
Reading, PA 19601
(610) 478-6490"
PA,Berks County,Mohnton,19540,"633 Court St., 1st Floor
Reading, PA 19601
(610) 478-6490"
PA,Berks County,Mohrsville,19541,"633 Court St., 1st Floor
Reading, PA 19601
(610) 478-6490"
PA,Berks County,Morgantown,19543,"633 Court St., 1st Floor
Reading, PA 19601
(610) 478-6490"
PA,Berks County,Oley,19547,"633 Court St., 1st Floor
Reading, PA 19601
(610) 478-6490"
PA,Berks County,Robesonia,19551,"633 Court St., 1st Floor
Reading, PA 19601
(610) 478-6490"
PA,Berks County,Shoemakersville,19555,"633 Court St., 1st Floor
Reading, PA 19601
(610) 478-6490"
PA,Berks County,Temple,19560,"633 Court St., 1st Floor
Reading, PA 19601
(610) 478-6490"
PA,Berks County,Topton,19562,"633 Court St., 1st Floor
Reading, PA 19601
(610) 478-6490"
PA,Berks County,Wernersville,19565,"633 Court St., 1st Floor
Reading, PA 19601
(610) 478-6490"
PA,Berks County,Womelsdorf,19567,"633 Court St., 1st Floor
Reading, PA 19601
(610) 478-6490"
PA,Berks County,Reading,19601,"633 Court St., 1st Floor
Reading, PA 19601
(610) 478-6490"
PA,Berks County,Reading,19602,"633 Court St., 1st Floor
Reading, PA 19601
(610) 478-6490"
PA,Berks County,Reading,19604,"633 Court St., 1st Floor
Reading, PA 19601
(610) 478-6490"
PA,Berks County,Reading,19605,"633 Court St., 1st Floor
Reading, PA 19601
(610) 478-6490"
PA,Berks County,Reading,19606,"633 Court St., 1st Floor
Reading, PA 19601
(610) 478-6490"
PA,Berks County,Reading,19607,"633 Court St., 1st Floor
Reading, PA 19601
(610) 478-6490"
PA,Berks County,Reading,19608,"633 Court St., 1st Floor
Reading, PA 19601
(610) 478-6490"
PA,Berks County,Reading,19609,"633 Court St., 1st Floor
Reading, PA 19601
(610) 478-6490"
PA,Berks County,Reading,19610,"633 Court St., 1st Floor
Reading, PA 19601
(610) 478-6490"
PA,Berks County,Reading,19611,"633 Court St., 1st Floor
Reading, PA 19601
(610) 478-6490"
